name,grade,city,gugun,dong,address,lat,lng
풍문고등학교,고등학교,서울특별시,강남구,자곡동,서울특별시 강남구 자곡로 152,37.4712504,127.1006925
한울중학교,중학교,서울특별시,금천구,시흥동,서울특별시 금천구 독산로50길 60,37.462335,126.9074
서울항동초등학교,초등학교,서울특별시,구로구,항동,서울특별시 구로구 연동로 178,37.4767306,126.8239832
서울숭신초등학교,초등학교,서울특별시,성동구,하왕십리동,서울특별시 성동구 마장로 161,37.5677035,127.0277668
내곡중학교,중학교,서울특별시,서초구,신원동,서울특별시 서초구 청계산로7길 9-20,37.45200217,127.0544427
해누리중학교,중학교,서울특별시,송파구,가락동,서울특별시 송파구 송파대로37길 95,37.49761178,127.1025328
한양공업고등학교,고등학교,서울특별시,중구,신당동,서울특별시 중구 을지로 299,37.565376,127.0118163
성동공업고등학교,고등학교,서울특별시,중구,흥인동,서울특별시 중구 다산로 290,37.5693545,127.0171338
성동글로벌경영고등학교,고등학교,서울특별시,중구,신당동,서울특별시 중구 퇴계로 375,37.5656443,127.0132205
대동세무고등학교,고등학교,서울특별시,종로구,계동,서울특별시 종로구 계동길 84-10,37.5819196,126.9879303
서일국제경영고등학교,고등학교,서울특별시,종로구,창신동,서울특별시 종로구 지봉로17길 49,37.5793722,127.0130226
경기상업고등학교,고등학교,서울특별시,종로구,청운동,서울특별시 종로구 자하문로 136,37.58925889,126.9700589
서울아이티고등학교,고등학교,서울특별시,노원구,중계동,서울특별시 노원구 섬밭로 299,37.6421764,127.0619553
미래산업과학고등학교,고등학교,서울특별시,노원구,중계동,서울특별시 노원구 덕릉로82길 54,37.6590494,127.0786348
동산정보산업고등학교,고등학교,서울특별시,노원구,공릉동,서울특별시 노원구 공릉로 257,37.6301266,127.0741844
인덕공업고등학교,고등학교,서울특별시,노원구,월계동,서울특별시 노원구 초안산로 12,37.6313747,127.0555547
염광여자메디텍고등학교,고등학교,서울특별시,노원구,월계동,서울특별시 노원구 월계로45가길 9,37.63025824,127.0492435
영신간호비즈니스고등학교,고등학교,서울특별시,노원구,중계동,서울특별시 노원구 중계로16나길 13,37.6521121,127.0828722
광운전자공업고등학교,고등학교,서울특별시,노원구,월계동,서울특별시 노원구 광운로1길 24,37.6208454,127.0561467
경기기계공업고등학교,고등학교,서울특별시,노원구,하계동,서울특별시 노원구 공릉로 264,37.6344163,127.0742785
세그루패션디자인고등학교,고등학교,서울특별시,도봉구,쌍문동,서울특별시 도봉구 시루봉로 53,37.655351,127.0268289
서울문화고등학교,고등학교,서울특별시,도봉구,방학동,서울특별시 도봉구 마들로 598,37.6638554,127.0475357
성암국제무역고등학교,고등학교,서울특별시,강북구,미아동,서울특별시 강북구 도봉로29길 52,37.6207354,127.024471
고명경영고등학교,고등학교,서울특별시,성북구,동선동4가,서울특별시 성북구 북악산로 870,37.5975051,127.0199462
동구마케팅고등학교,고등학교,서울특별시,성북구,성북동,서울특별시 성북구 성북로8길 71,37.5935994,127.0071027
서울도시과학기술고등학교,고등학교,서울특별시,성북구,하월곡동,서울특별시 성북구 종암로 196,37.6074229,127.03236
이화여자대학교병설미디어고등학교,고등학교,서울특별시,중랑구,망우동,서울특별시 중랑구 망우로73길 56,37.6037439,127.1049794
송곡관광고등학교,고등학교,서울특별시,중랑구,망우동,서울특별시 중랑구 양원역로 67,37.6063172,127.1053983
정화여자상업고등학교,고등학교,서울특별시,동대문구,제기동,서울특별시 동대문구 홍릉로15길 50,37.5857448,127.0408473
해성국제컨벤션고등학교,고등학교,서울특별시,동대문구,전농동,서울특별시 동대문구 전농로20길 31,37.5812848,127.0569633
휘경공업고등학교,고등학교,서울특별시,동대문구,휘경동,서울특별시 동대문구 겸재로 21,37.5849213,127.0695589
서울방송고등학교,고등학교,서울특별시,성동구,옥수동,서울특별시 성동구 동호로5길 131,37.54777313,127.0110355
성수공업고등학교,고등학교,서울특별시,성동구,성수동2가,서울특별시 성동구 뚝섬로 365,37.540543,127.0514262
덕수고등학교,고등학교,서울특별시,성동구,행당동,서울특별시 성동구 왕십리로 199,37.55526278,127.0411407
서울디지텍고등학교,고등학교,서울특별시,용산구,이태원동,서울특별시 용산구 회나무로12길 27,37.538911,126.990534
선린인터넷고등학교,고등학교,서울특별시,용산구,청파동3가,서울특별시 용산구 원효로97길 33-4,37.5427814,126.9663628
용산공업고등학교,고등학교,서울특별시,용산구,한강로3가,서울특별시 용산구 서빙고로 24,37.5243031,126.9671858
대경상업고등학교,고등학교,서울특별시,중구,신당동,서울특별시 중구 매봉18길 111,37.55669583,127.0175331
리라아트고등학교,고등학교,서울특별시,중구,예장동,서울특별시 중구 소파로2길 24,37.5571155,126.988191
경기여자상업고등학교,고등학교,서울특별시,중구,중림동,서울특별시 중구 만리재로37길 30,37.5570331,126.9668351
영락유헬스고등학교,고등학교,서울특별시,관악구,봉천동,서울특별시 관악구 청룡16길 25,37.4763905,126.9446913
서울관광고등학교,고등학교,서울특별시,관악구,봉천동,서울특별시 관악구 은천로15길 25,37.4881856,126.9433831
광신정보산업고등학교,고등학교,서울특별시,관악구,신림동,서울특별시 관악구 광신길 141,37.4651377,126.9256312
서울여자상업고등학교,고등학교,서울특별시,관악구,봉천동,서울특별시 관악구 관악로 85,37.4731302,126.9513293
서울공업고등학교,고등학교,서울특별시,동작구,대방동,서울특별시 동작구 대방동1길 46,37.50190153,126.9223834
한강미디어고등학교,고등학교,서울특별시,영등포구,양평동4가,서울특별시 영등포구 선유로55길 22,37.5391173,126.8972396
동일여자상업고등학교,고등학교,서울특별시,금천구,시흥동,서울특별시 금천구 탑골로10길 45,37.45167193,126.9168874
서서울생활과학고등학교,고등학교,서울특별시,구로구,궁동,서울특별시 구로구 오리로 1355-10,37.5032117,126.8281605
유한공업고등학교,고등학교,서울특별시,구로구,항동,서울특별시 구로구 경인로 8,37.4878646,126.8240073
덕일전자공업고등학교,고등학교,서울특별시,구로구,오류동,서울특별시 구로구 서해안로21길 5-12,37.490578,126.8371091
예림디자인고등학교,고등학교,서울특별시,구로구,궁동,서울특별시 구로구 오리로21길 2,37.4996945,126.8282053
영등포공업고등학교,고등학교,서울특별시,강서구,가양동,서울특별시 강서구 허준로5길 15,37.5692245,126.8504967
서울항공비즈니스고등학교,고등학교,서울특별시,강서구,마곡동,서울특별시 강서구 방화대로34길 13,37.5697071,126.8170866
신정여자상업고등학교,고등학교,서울특별시,강서구,화곡동,서울특별시 강서구 등촌로13아길 20,37.5380245,126.8568925
화곡보건경영고등학교,고등학교,서울특별시,강서구,내발산동,서울특별시 강서구 강서로45길 70,37.5488204,126.8328267
강서공업고등학교,고등학교,서울특별시,강서구,방화동,서울특별시 강서구 방화대로47길 9,37.5754999,126.8160214
서울영상고등학교,고등학교,서울특별시,양천구,신정동,서울특별시 양천구 목동로11길 46,37.5231812,126.8600333
서울금융고등학교,고등학교,서울특별시,양천구,신월동,서울특별시 양천구 가로공원로61길 19,37.5378303,126.8255403
서울디자인고등학교,고등학교,서울특별시,마포구,염리동,서울특별시 마포구 백범로 139,37.5463299,126.9473737
한세사이버보안고등학교,고등학교,서울특별시,마포구,아현동,서울특별시 마포구 마포대로11길 44-80,37.5517898,126.9520321
홍익디자인고등학교,고등학교,서울특별시,마포구,연남동,서울특별시 마포구 성미산로 111,37.56350983,126.9191674
세명컴퓨터고등학교,고등학교,서울특별시,은평구,불광동,서울특별시 은평구 통일로92가길 33,37.6275592,126.9231578
은평메디텍고등학교,고등학교,서울특별시,은평구,진관동,서울특별시 은평구 진관2로 57-57,37.6351761,126.929375
신진과학기술고등학교,고등학교,서울특별시,은평구,응암동,서울특별시 은평구 은평로6길 16,37.5983306,126.9184276
동명여자정보산업고등학교,고등학교,서울특별시,은평구,대조동,서울특별시 은평구 통일로 793,37.6146895,126.9240099
예일디자인고등학교,고등학교,서울특별시,은평구,구산동,서울특별시 은평구 연서로 117,37.6101791,126.9151623
선일이비즈니스고등학교,고등학교,서울특별시,은평구,갈현동,서울특별시 은평구 갈현로29길 27,37.6197497,126.9126173
선정관광고등학교,고등학교,서울특별시,은평구,갈현동,서울특별시 은평구 서오릉로20길 19,37.618336,126.9087149
상일미디어고등학교,고등학교,서울특별시,강동구,상일동,서울특별시 강동구 천호대로219길 61,37.54795369,127.1702183
서울컨벤션고등학교,고등학교,서울특별시,강동구,고덕동,서울특별시 강동구 동남로 964,37.5592845,127.1576771
성덕고등학교,고등학교,서울특별시,강동구,천호동,서울특별시 강동구 구천면로 396,37.5495007,127.1425564
일신여자상업고등학교,고등학교,서울특별시,송파구,송파동,서울특별시 송파구 송파대로38길 8,37.5017159,127.1135991
송파공업고등학교,고등학교,서울특별시,송파구,거여동,서울특별시 송파구 양산로 21,37.4917279,127.1424358
대진디자인고등학교,고등학교,서울특별시,강남구,수서동,서울특별시 강남구 광평로39길 93,37.4904401,127.0960046
단국공업고등학교,고등학교,서울특별시,강남구,대치동,서울특별시 강남구 도곡로64길 21,37.4953357,127.0564936
서울로봇고등학교,고등학교,서울특별시,강남구,일원동,서울특별시 강남구 광평로20길 63,37.4807426,127.0843315
서울전자고등학교,고등학교,서울특별시,서초구,방배동,서울특별시 서초구 과천대로 852-23,37.4693105,126.988415
한영외국어고등학교,고등학교,서울특별시,강동구,상일동,서울특별시 강동구 동남로 832,37.5489092,127.1581466
서울체육고등학교,고등학교,서울특별시,송파구,방이동,서울특별시 송파구 강동대로 232,37.5216734,127.130579
수도전기공업고등학교,고등학교,서울특별시,강남구,개포동,서울특별시 강남구 개포로 410,37.48493808,127.0644798
국립국악고등학교,고등학교,서울특별시,강남구,개포동,서울특별시 강남구 개포로22길 65,37.475978,127.0516132
미림여자정보과학고등학교,고등학교,서울특별시,관악구,신림동,서울특별시 관악구 호암로 546,37.4665516,126.932908
국립전통예술고등학교,고등학교,서울특별시,금천구,시흥동,서울특별시 금천구 시흥대로38길 62,37.4462133,126.9064871
서울공연예술고등학교,고등학교,서울특별시,구로구,궁동,서울특별시 구로구 오리로22나길 16-26,37.5000848,126.8322027
세종과학고등학교,고등학교,서울특별시,구로구,궁동,서울특별시 구로구 오리로21길 79,37.4968072,126.8276182
덕원예술고등학교,고등학교,서울특별시,강서구,내발산동,서울특별시 강서구 강서로45길 91-44,37.5485816,126.8290111
명덕외국어고등학교,고등학교,서울특별시,강서구,내발산동,서울특별시 강서구 강서로47길 34-10,37.5536011,126.8347305
한성과학고등학교,고등학교,서울특별시,서대문구,현저동,서울특별시 서대문구 통일로 279-79,37.5759859,126.9527945
서울외국어고등학교,고등학교,서울특별시,도봉구,창동,서울특별시 도봉구 덕릉로66길 22,37.6455929,127.0519514
대일외국어고등학교,고등학교,서울특별시,성북구,정릉동,서울특별시 성북구 서경로 116,37.61330387,127.0141757
선화예술고등학교,고등학교,서울특별시,광진구,능동,서울특별시 광진구 천호대로 664,37.55098151,127.087093
대원외국어고등학교,고등학교,서울특별시,광진구,중곡동,서울특별시 광진구 용마산로22길 26,37.563079,127.0889497
이화여자외국어고등학교,고등학교,서울특별시,중구,순화동,서울특별시 중구 통일로4길 30,37.56557705,126.9696428
서울예술고등학교,고등학교,서울특별시,종로구,평창동,서울특별시 종로구 평창문화로 70,37.605391,126.9691915
서울국제고등학교,고등학교,서울특별시,종로구,명륜1가,서울특별시 종로구 성균관로13길 40,37.59134,126.9959635
서울과학고등학교,고등학교,서울특별시,종로구,혜화동,서울특별시 종로구 혜화로 63,37.5916754,126.9982134
대원고등학교,고등학교,서울특별시,광진구,중곡동,서울특별시 광진구 용마산로22길 26,37.563079,127.0889497
자양고등학교,고등학교,서울특별시,광진구,자양동,서울특별시 광진구 뚝섬로37길 28,37.535433,127.0728365
광남고등학교,고등학교,서울특별시,광진구,광장동,서울특별시 광진구 아차산로70길 17-16,37.5413411,127.101751
성수고등학교,고등학교,서울특별시,성동구,성수동1가,서울특별시 성동구 서울숲길 18,37.547981,127.0387013
무학여자고등학교,고등학교,서울특별시,성동구,행당동,서울특별시 성동구 고산자로 197,37.55676803,127.0335995
성심여자고등학교,고등학교,서울특별시,용산구,원효로4가,서울특별시 용산구 원효로19길 49,37.5341025,126.9542291
신광여자고등학교,고등학교,서울특별시,용산구,청파동3가,서울특별시 용산구 청파로 263,37.5431703,126.9699957
보성여자고등학교,고등학교,서울특별시,용산구,용산동2가,서울특별시 용산구 신흥로3가길 66,37.5426751,126.984496
배문고등학교,고등학교,서울특별시,용산구,서계동,서울특별시 용산구 효창원로 258,37.5499978,126.9639049
오산고등학교,고등학교,서울특별시,용산구,보광동,서울특별시 용산구 보광로7길 17,37.52378179,127.0008688
용산고등학교,고등학교,서울특별시,용산구,용산동2가,서울특별시 용산구 두텁바위로 60,37.5453891,126.979489
장충고등학교,고등학교,서울특별시,중구,신당동,서울특별시 중구 동호로15길 93,37.5531457,127.0065905
상명대학교사범대학부속여자고등학교,고등학교,서울특별시,종로구,홍지동,서울특별시 종로구 홍지문2길 20,37.6041771,126.9556929
덕성여자고등학교,고등학교,서울특별시,종로구,안국동,서울특별시 종로구 율곡로3길 50,37.5773697,126.9827378
배화여자고등학교,고등학교,서울특별시,종로구,누하동,서울특별시 종로구 필운대로1길 34,37.57849658,126.9668658
경신고등학교,고등학교,서울특별시,종로구,혜화동,서울특별시 종로구 혜화로 74,37.5914502,127.0006702
대신고등학교,고등학교,서울특별시,종로구,행촌동,서울특별시 종로구 사직로 9,37.5734256,126.9618971
경복고등학교,고등학교,서울특별시,종로구,청운동,서울특별시 종로구 자하문로28가길 9,37.5867302,126.9717701
창동고등학교,고등학교,서울특별시,도봉구,창동,서울특별시 도봉구 노해로62길 7,37.6509764,127.0383612
자운고등학교,고등학교,서울특별시,도봉구,창동,서울특별시 도봉구 노해로69길 150,37.6592612,127.0504663
효문고등학교,고등학교,서울특별시,도봉구,쌍문동,서울특별시 도봉구 우이천로 432,37.6520737,127.0183236
누원고등학교,고등학교,서울특별시,도봉구,도봉동,서울특별시 도봉구 마들로 849,37.6855142,127.0498868
영훈고등학교,고등학교,서울특별시,강북구,미아동,서울특별시 강북구 도봉로13가길 19,37.613765,127.0278332
창문여자고등학교,고등학교,서울특별시,강북구,미아동,서울특별시 강북구 월계로 61,37.6131144,127.0362812
삼각산고등학교,고등학교,서울특별시,강북구,미아동,서울특별시 강북구 삼양로19길 40,37.6160393,127.0200563
혜화여자고등학교,고등학교,서울특별시,강북구,수유동,서울특별시 강북구 인수봉로 127,37.6310519,127.0127157
성신여자고등학교,고등학교,서울특별시,성북구,돈암동,서울특별시 성북구 동소문로26가길 80,37.5942881,127.0224064
한성여자고등학교,고등학교,서울특별시,성북구,삼선동2가,서울특별시 성북구 삼선교로16길 117,37.58306327,127.0117841
고려대학교사범대학부속고등학교,고등학교,서울특별시,성북구,정릉동,서울특별시 성북구 정릉로 161,37.6098005,127.001572
홍익대학교사범대학부속고등학교,고등학교,서울특별시,성북구,성북동,서울특별시 성북구 성북로14가길 23,37.5940995,127.0032562
석관고등학교,고등학교,서울특별시,성북구,석관동,서울특별시 성북구 한천로70길 30,37.610067,127.0664232
서울대학교사범대학부설고등학교,고등학교,서울특별시,성북구,종암동,서울특별시 성북구 월곡로 6,37.59472375,127.0381187
혜원여자고등학교,고등학교,서울특별시,중랑구,망우동,서울특별시 중랑구 봉우재로58길 39,37.592991,127.0967019
송곡여자고등학교,고등학교,서울특별시,중랑구,망우동,서울특별시 중랑구 양원역로 67,37.6063172,127.1053091
송곡고등학교,고등학교,서울특별시,중랑구,망우동,서울특별시 중랑구 양원역로 50,37.6053695,127.1068868
중화고등학교,고등학교,서울특별시,중랑구,중화동,서울특별시 중랑구 봉화산로27길 62,37.6046784,127.0832703
신현고등학교,고등학교,서울특별시,중랑구,상봉동,서울특별시 중랑구 봉화산로 174,37.6052281,127.0929502
태릉고등학교,고등학교,서울특별시,중랑구,묵동,서울특별시 중랑구 신내로23길 36,37.6188414,127.0849496
휘경여자고등학교,고등학교,서울특별시,동대문구,휘경동,서울특별시 동대문구 한천로 247,37.5831849,127.0673783
경희여자고등학교,고등학교,서울특별시,동대문구,회기동,서울특별시 동대문구 경희대로 26,37.5939495,127.0548902
해성여자고등학교,고등학교,서울특별시,동대문구,전농동,서울특별시 동대문구 전농로20길 31,37.5812323,127.0569633
동국대학교사범대학부속고등학교,고등학교,서울특별시,동대문구,장안동,서울특별시 동대문구 장안벚꽃로 201,37.57804844,127.0751336
휘봉고등학교,고등학교,서울특별시,동대문구,휘경동,서울특별시 동대문구 한천로 290,37.5864773,127.0688515
건국대학교사범대학부속고등학교,고등학교,서울특별시,광진구,화양동,서울특별시 광진구 능동로 120,37.53918331,127.0747099
대원여자고등학교,고등학교,서울특별시,광진구,중곡동,서울특별시 광진구 용마산로22길 26,37.563079,127.0889497
동국대학교사범대학부속여자고등학교,고등학교,서울특별시,광진구,구의동,서울특별시 광진구 광나루로36길 47,37.5425112,127.0867784
노원고등학교,고등학교,서울특별시,노원구,상계동,서울특별시 노원구 노원로 586,37.6624531,127.0531016
불암고등학교,고등학교,서울특별시,노원구,중계동,서울특별시 노원구 중계로 155,37.648924,127.0801792
상계고등학교,고등학교,서울특별시,노원구,상계동,서울특별시 노원구 노해로 432,37.6525328,127.0556823
정의여자고등학교,고등학교,서울특별시,도봉구,쌍문동,서울특별시 도봉구 노해로49길 69,37.6529105,127.0318063
청량고등학교,고등학교,서울특별시,동대문구,청량리동,서울특별시 동대문구 왕산로 303,37.5887771,127.0510593
대성고등학교,고등학교,서울특별시,은평구,갈현동,서울특별시 은평구 갈현로29길 51-24,37.6222852,126.9095921
수락고등학교,고등학교,서울특별시,노원구,상계동,서울특별시 노원구 동일로245길 143,37.6827335,127.0535593
선덕고등학교,고등학교,서울특별시,도봉구,쌍문동,서울특별시 도봉구 시루봉로 53,37.655351,127.0268289
도봉고등학교,고등학교,서울특별시,도봉구,도봉동,서울특별시 도봉구 도봉산길 27,37.6867707,127.0428051
신일고등학교,고등학교,서울특별시,강북구,미아동,서울특별시 강북구 솔매로49길 20,37.6282824,127.0282661
미양고등학교,고등학교,서울특별시,강북구,미아동,서울특별시 강북구 인수봉로 39,37.6232973,127.0122428
용문고등학교,고등학교,서울특별시,성북구,안암동2가,서울특별시 성북구 인촌로17가길 46,37.5881284,127.0250507
경동고등학교,고등학교,서울특별시,성북구,삼선동3가,서울특별시 성북구 보문로29길 49,37.586143,127.0149687
원묵고등학교,고등학교,서울특별시,중랑구,묵동,서울특별시 중랑구 숙선옹주로 82,37.6151791,127.0855959
면목고등학교,고등학교,서울특별시,중랑구,면목동,서울특별시 중랑구 용마산로72길 36-14,37.5842779,127.0971627
대광고등학교,고등학교,서울특별시,동대문구,신설동,서울특별시 동대문구 안암로 6,37.577861,127.0247227
경희고등학교,고등학교,서울특별시,동대문구,이문동,서울특별시 동대문구 경희대로 26,37.5939495,127.0548902
광양고등학교,고등학교,서울특별시,광진구,자양동,서울특별시 광진구 자양로3가길 31,37.5293846,127.0855989
한양대학교사범대학부속고등학교,고등학교,서울특별시,성동구,사근동,서울특별시 성동구 마조로 42,37.56191893,127.042326
경일고등학교,고등학교,서울특별시,성동구,성수동1가,서울특별시 성동구 성수일로 27,37.5435875,127.0480483
중경고등학교,고등학교,서울특별시,용산구,이촌동,서울특별시 용산구 이촌로84길 34,37.5176026,126.9757149
이화여자고등학교,고등학교,서울특별시,중구,순화동,서울특별시 중구 정동길,37.56557705,126.9696428
성동고등학교,고등학교,서울특별시,중구,신당동,서울특별시 중구 퇴계로90길 17,37.5641164,127.0232038
중앙고등학교,고등학교,서울특별시,종로구,계동,서울특별시 종로구 창덕궁길 164,37.584897,126.9870352
동성고등학교,고등학교,서울특별시,종로구,혜화동,서울특별시 종로구 대학로 156,37.5850756,127.0024292
배재고등학교,고등학교,서울특별시,강동구,고덕동,서울특별시 강동구 고덕로 227,37.5558123,127.1504916
보인고등학교,고등학교,서울특별시,송파구,오금동,서울특별시 송파구 오금로49길 18,37.4972181,127.1388757
현대고등학교,고등학교,서울특별시,강남구,압구정동,서울특별시 강남구 압구정로 127,37.5250492,127.0226425
중동고등학교,고등학교,서울특별시,강남구,일원동,서울특별시 강남구 일원로 7,37.4935585,127.0804483
휘문고등학교,고등학교,서울특별시,강남구,대치동,서울특별시 강남구 역삼로 541,37.5049279,127.0620662
세화여자고등학교,고등학교,서울특별시,서초구,반포동,서울특별시 서초구 신반포로 56-7,37.5018559,126.9922636
세화고등학교,고등학교,서울특별시,서초구,반포동,서울특별시 서초구 신반포로 56-7,37.5018343,126.9922636
미림여자고등학교,고등학교,서울특별시,관악구,신림동,서울특별시 관악구 호암로 546,37.4665516,126.932908
당곡고등학교,고등학교,서울특별시,관악구,봉천동,서울특별시 관악구 봉천로21길 108,37.4916205,126.9346016
경문고등학교,고등학교,서울특별시,동작구,동작동,서울특별시 동작구 동작대로 171,37.4933383,126.9822717
장훈고등학교,고등학교,서울특별시,영등포구,신길동,서울특별시 영등포구 영등포로64길 26,37.5133645,126.9151152
대영고등학교,고등학교,서울특별시,영등포구,신길동,서울특별시 영등포구 도림로86길 16,37.50366271,126.9058641
금천고등학교,고등학교,서울특별시,금천구,시흥동,서울특별시 금천구 시흥대로38길 26,37.444959,126.9055327
우신고등학교,고등학교,서울특별시,구로구,궁동,서울특별시 구로구 부일로 917,37.4951383,126.8268765
고척고등학교,고등학교,서울특별시,구로구,고척동,서울특별시 구로구 중앙로15길 162,37.5085758,126.8506504
구현고등학교,고등학교,서울특별시,구로구,구로동,서울특별시 구로구 경인로53가길 17,37.5022028,126.8744458
등촌고등학교,고등학교,서울특별시,강서구,등촌동,서울특별시 강서구 공항대로39길 115,37.5625935,126.8450161
한가람고등학교,고등학교,서울특별시,양천구,목동,서울특별시 양천구 목동서로 15,37.5376281,126.8841248
양정고등학교,고등학교,서울특별시,양천구,목동,서울특별시 양천구 안양천로 1039,37.5347501,126.8871706
숭문고등학교,고등학교,서울특별시,마포구,대흥동,서울특별시 마포구 숭문길 99,37.5508728,126.9457596
상암고등학교,고등학교,서울특별시,마포구,상암동,서울특별시 마포구 월드컵북로 445,37.5813832,126.8836186
서울여자고등학교,고등학교,서울특별시,마포구,염리동,서울특별시 마포구 백범로25길 34,37.5478121,126.9485819
이화여자대학교사범대학부속이화금란고등학교,고등학교,서울특별시,서대문구,대신동,서울특별시 서대문구 성산로 560,37.56636584,126.947661
하나고등학교,고등학교,서울특별시,은평구,진관동,서울특별시 은평구 연서로 535,37.6409443,126.9367183
환일고등학교,고등학교,서울특별시,마포구,아현동,서울특별시 중구 환일길 47,37.553868,126.9621659
도선고등학교,고등학교,서울특별시,성동구,하왕십리동,서울특별시 성동구 마장로 156,37.566656,127.0271249
금호고등학교,고등학교,서울특별시,성동구,금호동1가,서울특별시 성동구 금호로 118,37.5536206,127.0234354
영동중학교,중학교,서울특별시,서초구,우면동,서울특별시 서초구 성촌길 14,37.4659194,127.025224
가재울중학교,중학교,서울특별시,서대문구,북가좌동,서울특별시 서대문구 수색로 100-75,37.57517285,126.9099537
가재울고등학교,고등학교,서울특별시,서대문구,북가좌동,서울특별시 서대문구 수색로 100-35,37.5743151,126.9095302
서울상현초등학교,초등학교,서울특별시,동작구,상도동,서울특별시 동작구 상도로58길 21,37.4949618,126.9527374
천왕중학교,중학교,서울특별시,구로구,천왕동,서울특별시 구로구 천왕로 63,37.48265604,126.8373334
마곡중학교,중학교,서울특별시,강서구,마곡동,서울특별시 강서구 마곡중앙5로 58,37.5679071,126.8214007
경복비즈니스고등학교,고등학교,서울특별시,강서구,등촌동,서울특별시 강서구 화곡로 379,37.5580254,126.8526703
서울공항초등학교,초등학교,서울특별시,강서구,마곡동,서울특별시 강서구 마곡서1로 68,37.5632004,126.8215615
서울공진초등학교,초등학교,서울특별시,강서구,마곡동,서울특별시 강서구 마곡서로 33,37.5578048,126.822611
서울세명초등학교,초등학교,서울특별시,강남구,세곡동,서울특별시 강남구 자곡로 55,37.46885737,127.0910573
계성고등학교,고등학교,서울특별시,성북구,길음동,서울특별시 성북구 길음로 63,37.6075189,127.0204337
환일중학교,중학교,서울특별시,중구,만리동2가,서울특별시 중구 환일길 47,37.5538139,126.9621659
서울가재울초등학교,초등학교,서울특별시,서대문구,남가좌동,서울특별시 서대문구 모래내로15길 61,37.57376622,126.9183891
서울어울초등학교,초등학교,서울특별시,은평구,녹번동,서울특별시 은평구 통일로 650,37.60656187,126.9350984
서울강솔초등학교,초등학교,서울특별시,강동구,강일동,서울특별시 강동구 고덕로97길 80,37.56186818,127.1802689
세곡중학교,중학교,서울특별시,강남구,자곡동,서울특별시 강남구 자곡로 81,37.4715425,127.0922007
서울우솔초등학교,초등학교,서울특별시,서초구,우면동,서울특별시 서초구 양재대로2길 74,37.45652907,127.0189383
서울금나래초등학교,초등학교,서울특별시,금천구,독산동,서울특별시 금천구 시흥대로79길 37,37.45822937,126.8962417
송례중학교,중학교,서울특별시,송파구,장지동,서울특별시 송파구 위례순환로 429,37.4777414,127.1396227
서울송례초등학교,초등학교,서울특별시,송파구,장지동,서울특별시 송파구 위례순환로 439,37.4777342,127.1383172
서울새솔초등학교,초등학교,서울특별시,중랑구,신내동,서울특별시 중랑구 신내역로1길 164,37.6179891,127.1113289
서울율현초등학교,초등학교,서울특별시,강남구,자곡동,서울특별시 강남구 밤고개로21길 15,37.4745155,127.1082848
서울자곡초등학교,초등학교,서울특별시,강남구,자곡동,서울특별시 강남구 자곡로 150,37.47219144,127.0995995
서울하늘숲초등학교,초등학교,서울특별시,구로구,천왕동,서울특별시 구로구 오리로 1106,37.4846884,126.842417
서울위례별초등학교,초등학교,서울특별시,송파구,장지동,서울특별시 송파구 위례광장로 243,37.47908578,127.1450416
서울해누리초등학교,초등학교,서울특별시,송파구,가락동,서울특별시 송파구 송파대로 345,37.49761178,127.1025328
서울언남초등학교,초등학교,서울특별시,서초구,내곡동,서울특별시 서초구 헌릉로8길 42,37.4539185,127.0613427
대일관광고등학교,고등학교,서울특별시,양천구,신정동,서울특별시 양천구 신정이펜1로 11,37.51141277,126.8349048
광신고등학교,고등학교,서울특별시,관악구,신림동,서울특별시 관악구 광신길 141,37.4651377,126.9256312
서울미술고등학교,고등학교,서울특별시,관악구,봉천동,서울특별시 관악구 남부순환로247길 26,37.47676,126.9671283
서울문영여자고등학교,고등학교,서울특별시,관악구,봉천동,서울특별시 관악구 관악로 85,37.4731302,126.9513293
성보고등학교,고등학교,서울특별시,관악구,신림동,서울특별시 관악구 남부순환로156길 39,37.4801177,126.9207947
남강고등학교,고등학교,서울특별시,관악구,신림동,서울특별시 관악구 난곡로34길 80,37.4719974,126.9247473
삼성고등학교,고등학교,서울특별시,관악구,신림동,서울특별시 관악구 신림로 41,37.4691633,126.9436438
인헌고등학교,고등학교,서울특별시,관악구,봉천동,서울특별시 관악구 인헌9길 74,37.4715662,126.9702013
신림고등학교,고등학교,서울특별시,관악구,신림동,서울특별시 관악구 문성로 119,37.4786338,126.9173643
구암고등학교,고등학교,서울특별시,관악구,봉천동,서울특별시 관악구 성현로 57,37.4924558,126.9502242
숭의여자고등학교,고등학교,서울특별시,동작구,대방동,서울특별시 동작구 여의대방로36길 79,37.5073276,126.9292344
성남고등학교,고등학교,서울특별시,동작구,대방동,서울특별시 동작구 대방동길 74,37.50528121,126.9266132
동작고등학교,고등학교,서울특별시,동작구,사당동,서울특별시 동작구 솔밭로 51,37.48260068,126.965086
수도여자고등학교,고등학교,서울특별시,동작구,신대방동,서울특별시 동작구 여의대방로10길 73,37.4931834,126.9155129
영등포고등학교,고등학교,서울특별시,동작구,대방동,서울특별시 동작구 등용로8길 5,37.50905578,126.9347349
선유고등학교,고등학교,서울특별시,영등포구,양평동4가,서울특별시 영등포구 선유로 227,37.5339205,126.8948722
영신고등학교,고등학교,서울특별시,영등포구,신길동,서울특별시 영등포구 대방천로14길 18,37.4977349,126.9098123
동북고등학교,고등학교,서울특별시,강동구,둔촌동,서울특별시 강동구 강동대로 305,37.5200101,127.1406733
선사고등학교,고등학교,서울특별시,강동구,암사동,서울특별시 강동구 고덕로25길 17,37.5564791,127.1359719
강일고등학교,고등학교,서울특별시,강동구,강일동,서울특별시 강동구 아리수로98길 40,37.5639542,127.1777631
둔촌고등학교,고등학교,서울특별시,강동구,둔촌동,서울특별시 강동구 명일로 140,37.530868,127.1439317
명일여자고등학교,고등학교,서울특별시,강동구,명일동,서울특별시 강동구 명일로 350,37.5498157,127.1500544
영동일고등학교,고등학교,서울특별시,송파구,잠실동,서울특별시 송파구 석촌호수로 93,37.5099074,127.0897718
영파여자고등학교,고등학교,서울특별시,송파구,풍납동,서울특별시 송파구 올림픽로 565,37.5326565,127.1202571
정신여자고등학교,고등학교,서울특별시,송파구,잠실동,서울특별시 송파구 올림픽로4길 16,37.5091964,127.0727415
잠실여자고등학교,고등학교,서울특별시,송파구,송파동,서울특별시 송파구 송파대로38길 8,37.5017159,127.1135991
배명고등학교,고등학교,서울특별시,송파구,삼전동,서울특별시 송파구 삼학사로 11,37.4984761,127.0955809
보성고등학교,고등학교,서울특별시,송파구,방이동,서울특별시 송파구 양재대로 1278,37.5195624,127.1351642
문현고등학교,고등학교,서울특별시,송파구,장지동,서울특별시 송파구 충민로 115,37.4812764,127.1287497
잠신고등학교,고등학교,서울특별시,송파구,잠실동,서울특별시 송파구 잠실로 24,37.5150759,127.0889878
오금고등학교,고등학교,서울특별시,송파구,오금동,서울특별시 송파구 중대로 247,37.504487,127.1292797
가락고등학교,고등학교,서울특별시,송파구,송파동,서울특별시 송파구 송이로 42,37.5011923,127.1165911
문정고등학교,고등학교,서울특별시,송파구,문정동,서울특별시 송파구 송이로34길 62,37.4847089,127.1267288
방산고등학교,고등학교,서울특별시,송파구,방이동,서울특별시 송파구 오금로27길 18,37.508227,127.1204817
창덕여자고등학교,고등학교,서울특별시,송파구,방이동,서울특별시 송파구 양재대로 1240,37.5163989,127.1399737
잠실고등학교,고등학교,서울특별시,송파구,신천동,서울특별시 송파구 올림픽로33길 71,37.52293007,127.1065132
잠일고등학교,고등학교,서울특별시,송파구,잠실동,서울특별시 송파구 백제고분로 21,37.5140261,127.0814053
중앙대학교사범대학부속고등학교,고등학교,서울특별시,강남구,도곡동,서울특별시 강남구 선릉로 207,37.4919416,127.0521317
서울세종고등학교,고등학교,서울특별시,강남구,수서동,서울특별시 강남구 광평로51길 36,37.4903266,127.1026224
진선여자고등학교,고등학교,서울특별시,강남구,역삼동,서울특별시 강남구 선릉로85길 27,37.501754,127.0476387
은광여자고등학교,고등학교,서울특별시,강남구,도곡동,서울특별시 강남구 남부순환로359길 36,37.4879414,127.0359252
숙명여자고등학교,고등학교,서울특별시,강남구,도곡동,서울특별시 강남구 남부순환로 2807,37.4907295,127.0533366
단국대학교사범대학부속고등학교,고등학교,서울특별시,강남구,대치동,서울특별시 강남구 도곡로64길 21,37.4953357,127.0564936
중산고등학교,고등학교,서울특별시,강남구,일원동,서울특별시 강남구 일원로14길 22,37.485653,127.0808471
영동고등학교,고등학교,서울특별시,강남구,청담동,서울특별시 강남구 선릉로 742,37.5205869,127.0426288
청담고등학교,고등학교,서울특별시,강남구,압구정동,서울특별시 강남구 압구정로 419,37.5278836,127.0435289
한영고등학교,고등학교,서울특별시,강동구,상일동,서울특별시 강동구 동남로 832,37.5489092,127.1581885
강동고등학교,고등학교,서울특별시,강동구,상일동,서울특별시 강동구 구천면로 572,37.54991683,127.1606671
광문고등학교,고등학교,서울특별시,강동구,고덕동,서울특별시 강동구 동남로 968,37.5602563,127.1585555
상일여자고등학교,고등학교,서울특별시,강동구,상일동,서울특별시 강동구 천호대로219길 61,37.54795369,127.1702183
영신여자고등학교,고등학교,서울특별시,노원구,중계동,서울특별시 노원구 중계로16나길 13,37.6521121,127.0828722
청원여자고등학교,고등학교,서울특별시,노원구,상계동,서울특별시 노원구 한글비석로 506,37.6660284,127.0620129
재현고등학교,고등학교,서울특별시,노원구,중계동,서울특별시 노원구 덕릉로82길 64,37.6615474,127.0814504
대진고등학교,고등학교,서울특별시,노원구,하계동,서울특별시 노원구 공릉로62가길 47,37.6376049,127.07504
서라벌고등학교,고등학교,서울특별시,노원구,중계동,서울특별시 노원구 한글비석로5길 18,37.6449003,127.0758322
청원고등학교,고등학교,서울특별시,노원구,상계동,서울특별시 노원구 한글비석로 506,37.6660284,127.0620129
월계고등학교,고등학교,서울특별시,노원구,월계동,서울특별시 노원구 초안산로5길 66,37.6317394,127.0486715
진명여자고등학교,고등학교,서울특별시,양천구,목동,서울특별시 양천구 목동로 170,37.523798,126.8661298
양천고등학교,고등학교,서울특별시,양천구,신정동,서울특별시 양천구 신정로14길 13,37.5088072,126.8459167
광영고등학교,고등학교,서울특별시,양천구,신월동,서울특별시 양천구 남부순환로30길 17,37.53779,126.8241065
강서고등학교,고등학교,서울특별시,양천구,목동,서울특별시 양천구 목동중앙남로 27,37.5364895,126.8663661
신서고등학교,고등학교,서울특별시,양천구,신정동,서울특별시 양천구 은행정로 42,37.5237867,126.860093
신목고등학교,고등학교,서울특별시,양천구,신정동,서울특별시 양천구 안양천로 739,37.5128286,126.8734611
금옥여자고등학교,고등학교,서울특별시,양천구,신정동,서울특별시 양천구 신정로 213,37.5106219,126.8442611
홍익대학교사범대학부속여자고등학교,고등학교,서울특별시,마포구,성산동,서울특별시 마포구 성미산로 51,37.5601072,126.9134939
경성고등학교,고등학교,서울특별시,마포구,연남동,서울특별시 마포구 성미산로 111,37.56350983,126.9191674
광성고등학교,고등학교,서울특별시,마포구,신수동,서울특별시 마포구 신수로8길 20,37.5486226,126.9363687
명지고등학교,고등학교,서울특별시,서대문구,홍은동,서울특별시 서대문구 명지2길 56,37.5848709,126.9270773
중앙여자고등학교,고등학교,서울특별시,서대문구,북아현동,서울특별시 서대문구 북아현로11가길 7,37.5628641,126.9531684
한성고등학교,고등학교,서울특별시,서대문구,북아현동,서울특별시 서대문구 북아현로1길 24,37.55909581,126.9544615
인창고등학교,고등학교,서울특별시,서대문구,충정로2가,서울특별시 서대문구 경기대로 65,37.5651781,126.9639075
선정고등학교,고등학교,서울특별시,은평구,갈현동,서울특별시 은평구 서오릉로20길 19,37.618336,126.9087107
예일여자고등학교,고등학교,서울특별시,은평구,구산동,서울특별시 은평구 연서로 117,37.6101791,126.9151623
선일여자고등학교,고등학교,서울특별시,은평구,갈현동,서울특별시 은평구 갈현로29길 27,37.6197497,126.9126173
동명여자고등학교,고등학교,서울특별시,은평구,대조동,서울특별시 은평구 통일로 793,37.6146895,126.9240099
숭실고등학교,고등학교,서울특별시,은평구,신사동,서울특별시 은평구 은평터널로7길 6,37.593125,126.9032327
충암고등학교,고등학교,서울특별시,은평구,응암동,서울특별시 은평구 가좌로5길 5,37.5850457,126.9217386
은평고등학교,고등학교,서울특별시,은평구,구산동,서울특별시 은평구 갈현로15길 51,37.6092227,126.9058482
진관고등학교,고등학교,서울특별시,은평구,진관동,서울특별시 은평구 진관4로 26,37.6433754,126.9244109
신도고등학교,고등학교,서울특별시,은평구,진관동,서울특별시 은평구 통일로 961,37.6291368,126.9184892
상명고등학교,고등학교,서울특별시,노원구,중계동,서울특별시 노원구 덕릉로 553,37.6494211,127.0682567
염광고등학교,고등학교,서울특별시,노원구,월계동,서울특별시 노원구 월계로45가길 9,37.63025824,127.0492435
한국삼육고등학교,고등학교,서울특별시,노원구,공릉동,서울특별시 노원구 화랑로 815,37.6431424,127.1062512
대진여자고등학교,고등학교,서울특별시,노원구,중계동,서울특별시 노원구 공릉로 438,37.6464458,127.0672803
용화여자고등학교,고등학교,서울특별시,노원구,상계동,서울특별시 노원구 동일로 1461,37.6588542,127.0583806
혜성여자고등학교,고등학교,서울특별시,노원구,하계동,서울특별시 노원구 노원로16길 2,37.640511,127.0736034
관악고등학교,고등학교,서울특별시,영등포구,양평동2가,서울특별시 영등포구 영등포로6길 26,37.5214463,126.8829505
여의도여자고등학교,고등학교,서울특별시,영등포구,여의도동,서울특별시 영등포구 국제금융로7가길 13,37.5229622,126.9349823
영등포여자고등학교,고등학교,서울특별시,영등포구,신길동,서울특별시 영등포구 영등포로62길 13,37.5153771,126.9152716
여의도고등학교,고등학교,서울특별시,영등포구,여의도동,서울특별시 영등포구 국제금융로7길 37,37.5252751,126.9336842
동일여자고등학교,고등학교,서울특별시,금천구,시흥동,서울특별시 금천구 탑골로10길 45,37.45167193,126.9168874
문일고등학교,고등학교,서울특별시,금천구,시흥동,서울특별시 금천구 시흥대로47길 45,37.4493523,126.8984231
독산고등학교,고등학교,서울특별시,금천구,독산동,서울특별시 금천구 문성로 64,37.4760267,126.9108536
오류고등학교,고등학교,서울특별시,구로구,궁동,서울특별시 구로구 오리로21길 2,37.4996945,126.8282053
신도림고등학교,고등학교,서울특별시,구로구,신도림동,서울특별시 구로구 경인로67길 159,37.5136678,126.8820338
구일고등학교,고등학교,서울특별시,구로구,구로동,서울특별시 구로구 구일로 90-51,37.4941106,126.873852
구로고등학교,고등학교,서울특별시,구로구,구로동,서울특별시 구로구 가마산로27길 45,37.4984981,126.8896924
경인고등학교,고등학교,서울특별시,구로구,고척동,서울특별시 구로구 경인로46길 31,37.4964171,126.8657015
한광고등학교,고등학교,서울특별시,강서구,화곡동,서울특별시 강서구 등촌로13길 110,37.5388666,126.8578799
한서고등학교,고등학교,서울특별시,강서구,방화동,서울특별시 강서구 양천로11길 47,37.5746018,126.8081599
명덕여자고등학교,고등학교,서울특별시,강서구,내발산동,서울특별시 강서구 강서로47길 34-10,37.5536011,126.8347305
덕원여자고등학교,고등학교,서울특별시,강서구,내발산동,서울특별시 강서구 강서로45길 91-44,37.5485816,126.8290111
경복여자고등학교,고등학교,서울특별시,강서구,등촌동,서울특별시 강서구 화곡로63길 40,37.55782075,126.8505974
영일고등학교,고등학교,서울특별시,강서구,등촌동,서울특별시 강서구 등촌로51가길 26,37.5473671,126.8618151
동양고등학교,고등학교,서울특별시,강서구,가양동,서울특별시 강서구 허준로 50,37.5687587,126.8470842
명덕고등학교,고등학교,서울특별시,강서구,내발산동,서울특별시 강서구 강서로47길 34-10,37.5536011,126.8347305
화곡고등학교,고등학교,서울특별시,강서구,내발산동,서울특별시 강서구 강서로45길 69,37.5480355,126.831698
마포고등학교,고등학교,서울특별시,강서구,등촌동,서울특별시 강서구 화곡로 403,37.55998993,126.8531328
대일고등학교,고등학교,서울특별시,강서구,등촌동,서울특별시 강서구 등촌로 105,37.5394531,126.8632842
세현고등학교,고등학교,서울특별시,강서구,가양동,서울특별시 강서구 허준로 227,37.5604161,126.8637798
수명고등학교,고등학교,서울특별시,강서구,내발산동,서울특별시 강서구 수명로2길 15,37.5497013,126.8242688
공항고등학교,고등학교,서울특별시,강서구,방화동,서울특별시 강서구 개화동로 495,37.56929277,126.8063246
백암고등학교,고등학교,서울특별시,양천구,신정동,서울특별시 양천구 신정로13길 16,37.5117371,126.8440539
광영여자고등학교,고등학교,서울특별시,양천구,신월동,서울특별시 양천구 남부순환로30길 17,37.53779,126.8241074
목동고등학교,고등학교,서울특별시,양천구,신정동,서울특별시 양천구 목동동로2길 68,37.5090728,126.8607466
압구정고등학교,고등학교,서울특별시,강남구,압구정동,서울특별시 강남구 압구정로39길 20,37.5311729,127.0328538
개포고등학교,고등학교,서울특별시,강남구,개포동,서울특별시 강남구 개포로 402,37.4846776,127.0596014
경기여자고등학교,고등학교,서울특별시,강남구,개포동,서울특별시 강남구 삼성로 29,37.486824,127.0660933
경기고등학교,고등학교,서울특별시,강남구,삼성동,서울특별시 강남구 영동대로 643,37.5161265,127.05525
동덕여자고등학교,고등학교,서울특별시,서초구,방배동,서울특별시 서초구 효령로2길 123-5,37.4759144,126.9927567
서문여자고등학교,고등학교,서울특별시,서초구,방배동,서울특별시 서초구 동광로12길 84,37.4885743,126.985083
상문고등학교,고등학교,서울특별시,서초구,방배동,서울특별시 서초구 명달로 45,37.4794948,127.0045069
언남고등학교,고등학교,서울특별시,서초구,양재동,서울특별시 서초구 동산로13길 35,37.4725868,127.042718
서초고등학교,고등학교,서울특별시,서초구,서초동,서울특별시 서초구 반포대로27길 29,37.4893168,127.0057059
양재고등학교,고등학교,서울특별시,서초구,서초동,서울특별시 서초구 남부순환로346길 9,37.4827746,127.0324921
반포고등학교,고등학교,서울특별시,서초구,반포동,서울특별시 서초구 고무래로 71,37.5022177,127.016153
서울고등학교,고등학교,서울특별시,서초구,서초동,서울특별시 서초구 효령로 197,37.4842697,127.005399
영락고등학교,고등학교,서울특별시,관악구,봉천동,서울특별시 관악구 청룡16길 25,37.4763092,126.9446913
동대문중학교,중학교,서울특별시,동대문구,전농동,서울특별시 동대문구 사가정로 59,37.5742981,127.0519039
전농중학교,중학교,서울특별시,동대문구,전농동,서울특별시 동대문구 사가정로13길 71,37.5803315,127.0601296
전일중학교,중학교,서울특별시,동대문구,전농동,서울특별시 동대문구 사가정로13길 67,37.5819789,127.0583551
장평중학교,중학교,서울특별시,동대문구,장안동,서울특별시 동대문구 답십리로72길 158,37.5665027,127.0705294
숭인중학교,중학교,서울특별시,동대문구,답십리동,서울특별시 동대문구 천호대로47길 34,37.5737834,127.0438537
은평중학교,중학교,서울특별시,은평구,구산동,서울특별시 은평구 갈현로17나길 12-1,37.6107316,126.9084436
진관중학교,중학교,서울특별시,은평구,진관동,서울특별시 은평구 진관4로 36,37.6439091,126.9256292
신도중학교,중학교,서울특별시,은평구,진관동,서울특별시 은평구 진관1로 77-30,37.6327604,126.9308427
증산중학교,중학교,서울특별시,은평구,증산동,서울특별시 은평구 증산로5길 27-30,37.5833357,126.9039526
구산중학교,중학교,서울특별시,은평구,구산동,서울특별시 은평구 갈현로15길 20-23,37.6096859,126.9088711
혜원여자중학교,중학교,서울특별시,중랑구,망우동,서울특별시 중랑구 봉우재로58길 39,37.592991,127.0967967
영란여자중학교,중학교,서울특별시,중랑구,망우동,서울특별시 중랑구 망우로73길 56,37.6037439,127.1049617
송곡여자중학교,중학교,서울특별시,중랑구,망우동,서울특별시 중랑구 양원역로 67,37.6063172,127.1053091
장안중학교,중학교,서울특별시,중랑구,중화동,서울특별시 중랑구 동일로 780,37.6005832,127.0809446
중랑중학교,중학교,서울특별시,중랑구,중화동,서울특별시 중랑구 동일로140길 33,37.6051919,127.0813987
신현중학교,중학교,서울특별시,중랑구,상봉동,서울특별시 중랑구 봉화산로 162,37.6046114,127.0916088
상봉중학교,중학교,서울특별시,중랑구,상봉동,서울특별시 중랑구 상봉중앙로8나길 28,37.6014604,127.0900877
태릉중학교,중학교,서울특별시,중랑구,묵동,서울특별시 중랑구 공릉로2길 60-25,37.6123214,127.0830802
원묵중학교,중학교,서울특별시,중랑구,묵동,서울특별시 중랑구 신내로23길 57,37.6177721,127.0840347
용마중학교,중학교,서울특별시,중랑구,면목동,서울특별시 중랑구 면목로28길 18,37.5743518,127.0860548
면목중학교,중학교,서울특별시,중랑구,면목동,서울특별시 중랑구 용마산로70길 37,37.5830377,127.0960613
중화중학교,중학교,서울특별시,중랑구,면목동,서울특별시 중랑구 용마산로 364,37.5846058,127.0952009
봉화중학교,중학교,서울특별시,중랑구,망우동,서울특별시 중랑구 망우로70길 89,37.5960866,127.1042177
동원중학교,중학교,서울특별시,중랑구,망우동,서울특별시 중랑구 양원역로 32,37.6037348,127.1088882
대광중학교,중학교,서울특별시,동대문구,신설동,서울특별시 동대문구 안암로 6,37.577861,127.0247227
경희여자중학교,중학교,서울특별시,동대문구,회기동,서울특별시 동대문구 경희대로 26,37.5939495,127.0548902
휘경여자중학교,중학교,서울특별시,동대문구,휘경동,서울특별시 동대문구 한천로 247,37.5831849,127.0673783
정화여자중학교,중학교,서울특별시,동대문구,제기동,서울특별시 동대문구 홍릉로15길 50,37.5857064,127.0408473
동국대학교사범대학부속중학교,중학교,서울특별시,동대문구,장안동,서울특별시 동대문구 장안벚꽃로 201,37.57804844,127.0751705
경희중학교,중학교,서울특별시,동대문구,이문동,서울특별시 동대문구 경희대로 26,37.5939495,127.0548902
휘경중학교,중학교,서울특별시,동대문구,휘경동,서울특별시 동대문구 망우로18나길 20,37.5871413,127.0620517
전동중학교,중학교,서울특별시,동대문구,휘경동,서울특별시 동대문구 장안벚꽃로 291,37.5856607,127.0711298
청량중학교,중학교,서울특별시,동대문구,청량리동,서울특별시 동대문구 왕산로 301,37.5878065,127.0511245
성일중학교,중학교,서울특별시,동대문구,제기동,서울특별시 동대문구 왕산로23길 55,37.5812877,127.0340095
창천중학교,중학교,서울특별시,마포구,노고산동,서울특별시 마포구 백범로1길 56,37.5548546,126.9393201
성사중학교,중학교,서울특별시,마포구,성산동,서울특별시 마포구 모래내로9길 16,37.5682832,126.9133116
서울여자중학교,중학교,서울특별시,마포구,염리동,서울특별시 마포구 백범로25길 34,37.5478121,126.9485819
명지중학교,중학교,서울특별시,서대문구,홍은동,서울특별시 서대문구 명지2길 56,37.5848709,126.9270773
이화여자대학교사범대학부속이화금란중학교,중학교,서울특별시,서대문구,대신동,서울특별시 서대문구 성산로 520,37.56312436,126.9443854
정원여자중학교,중학교,서울특별시,서대문구,홍은동,서울특별시 서대문구 연희로37안길 51,37.5850101,126.9332912
중앙여자중학교,중학교,서울특별시,서대문구,북아현동,서울특별시 서대문구 북아현로11가길 7,37.5628641,126.9531684
동명여자중학교,중학교,서울특별시,서대문구,천연동,서울특별시 서대문구 독립문로 49,37.5685235,126.9623079
한성중학교,중학교,서울특별시,서대문구,북아현동,서울특별시 서대문구 북아현로1길 24,37.55909581,126.9544568
인창중학교,중학교,서울특별시,서대문구,충정로2가,서울특별시 서대문구 경기대로 65,37.5651781,126.9639075
인왕중학교,중학교,서울특별시,서대문구,홍제동,서울특별시 서대문구 세검정로4길,37.5926488,126.9517708
홍은중학교,중학교,서울특별시,서대문구,홍은동,서울특별시 서대문구 연희로41길 94,37.5926855,126.9351327
서연중학교,중학교,서울특별시,서대문구,연희동,서울특별시 서대문구 연희로11마길 9-6,37.5681089,126.9276344
연북중학교,중학교,서울특별시,서대문구,연희동,서울특별시 서대문구 연희로36길 32,37.5772168,126.9385603
신연중학교,중학교,서울특별시,서대문구,연희동,서울특별시 서대문구 모래내로 408,37.5824549,126.9394981
연희중학교,중학교,서울특별시,서대문구,남가좌동,서울특별시 서대문구 증가로 170,37.5794106,126.9187767
충암중학교,중학교,서울특별시,은평구,응암동,서울특별시 은평구 가좌로5길 5,37.5850457,126.9217386
영락중학교,중학교,서울특별시,은평구,응암동,서울특별시 은평구 백련산로 134-6,37.59695868,126.9251334
선정중학교,중학교,서울특별시,은평구,갈현동,서울특별시 은평구 서오릉로20길 19,37.618336,126.9087107
예일여자중학교,중학교,서울특별시,은평구,구산동,서울특별시 은평구 연서로 117,37.6101791,126.9151623
선일여자중학교,중학교,서울특별시,은평구,갈현동,서울특별시 은평구 갈현로29길 27,37.6197088,126.9126173
숭실중학교,중학교,서울특별시,은평구,신사동,서울특별시 은평구 은평터널로7길 6,37.593125,126.9032327
대성중학교,중학교,서울특별시,은평구,갈현동,서울특별시 은평구 갈현로29길 51-24,37.6222852,126.9095921
연서중학교,중학교,서울특별시,은평구,증산동,서울특별시 은평구 증산서길 125-6,37.5869994,126.9097051
덕산중학교,중학교,서울특별시,은평구,신사동,서울특별시 은평구 가좌로 400,37.6021261,126.9044799
상신중학교,중학교,서울특별시,은평구,신사동,서울특별시 은평구 증산로15길 61,37.5898474,126.906663
연천중학교,중학교,서울특별시,은평구,불광동,서울특별시 은평구 연서로41길 30,37.6274422,126.9258482
연신중학교,중학교,서울특별시,은평구,불광동,서울특별시 은평구 연서로33길 16-32,37.6234911,126.9247507
불광중학교,중학교,서울특별시,은평구,불광동,서울특별시 은평구 불광로 180,37.6230951,126.932123
안천중학교,중학교,서울특별시,금천구,독산동,서울특별시 금천구 한내로 69-44,37.4593606,126.8874105
난곡중학교,중학교,서울특별시,금천구,독산동,서울특별시 금천구 문성로 67,37.4778025,126.9107419
가산중학교,중학교,서울특별시,금천구,독산동,서울특별시 금천구 시흥대로115길 48,37.4685225,126.8943615
세일중학교,중학교,서울특별시,금천구,독산동,서울특별시 금천구 시흥대로147길 34,37.4746253,126.8954859
문성중학교,중학교,서울특별시,금천구,독산동,서울특별시 금천구 독산로102길 78,37.4754183,126.9079037
시흥중학교,중학교,서울특별시,금천구,시흥동,서울특별시 금천구 시흥대로38길 60,37.4460493,126.9051484
우신중학교,중학교,서울특별시,구로구,궁동,서울특별시 구로구 부일로 917,37.4951383,126.8268765
영서중학교,중학교,서울특별시,구로구,구로동,서울특별시 구로구 도림로20길 35,37.4889819,126.8942198
영림중학교,중학교,서울특별시,구로구,구로동,서울특별시 구로구 가마산로27길 17,37.4975539,126.8903736
구로중학교,중학교,서울특별시,구로구,구로동,서울특별시 구로구 구로중앙로 48,37.4946496,126.8909153
오류중학교,중학교,서울특별시,구로구,고척동,서울특별시 구로구 고척로27바길 19,37.5078957,126.8461243
고척중학교,중학교,서울특별시,구로구,고척동,서울특별시 구로구 중앙로3길 20,37.5002646,126.861981
개웅중학교,중학교,서울특별시,구로구,개봉동,서울특별시 구로구 개봉로11길 81,37.4873146,126.851246
개봉중학교,중학교,서울특별시,구로구,개봉동,서울특별시 구로구 고척로21나길 68,37.5029403,126.8422137
오남중학교,중학교,서울특별시,구로구,오류동,서울특별시 구로구 오리로9길 25,37.4871448,126.8359411
경인중학교,중학교,서울특별시,구로구,개봉동,서울특별시 구로구 경인로 301,37.4982046,126.8542405
신도림중학교,중학교,서울특별시,구로구,신도림동,서울특별시 구로구 경인로63길 74,37.5108953,126.8853644
구일중학교,중학교,서울특별시,구로구,구로동,서울특별시 구로구 구일로 90-133,37.4950996,126.8737218
동도중학교,중학교,서울특별시,마포구,염리동,서울특별시 마포구 백범로 139,37.5463299,126.9473737
홍익대학교사범대학부속여자중학교,중학교,서울특별시,마포구,성산동,서울특별시 마포구 성미산로 51,37.5601359,126.9134939
경성중학교,중학교,서울특별시,마포구,연남동,서울특별시 마포구 성미산로 111,37.56350983,126.9191674
광성중학교,중학교,서울특별시,마포구,신수동,서울특별시 마포구 신수로8길 20,37.5486226,126.9363687
숭문중학교,중학교,서울특별시,마포구,대흥동,서울특별시 마포구 숭문길 99,37.55088946,126.9457706
상암중학교,중학교,서울특별시,마포구,상암동,서울특별시 마포구 상암산로1길 26,37.5788784,126.8878697
성산중학교,중학교,서울특별시,마포구,합정동,서울특별시 마포구 성지1길 32-13,37.547454,126.9160619
중암중학교,중학교,서울특별시,마포구,중동,서울특별시 마포구 월드컵북로38길 25,37.5723226,126.9033873
아현중학교,중학교,서울특별시,마포구,아현동,서울특별시 마포구 마포대로 247,37.5564008,126.9565001
신수중학교,중학교,서울특별시,마포구,신수동,서울특별시 마포구 신수로 49,37.546446,126.9336333
성서중학교,중학교,서울특별시,마포구,성산동,서울특별시 마포구 성산로4길 42,37.5626372,126.9085186
하계중학교,중학교,서울특별시,노원구,하계동,서울특별시 노원구 노원로 261-8,37.6410862,127.0719341
상경중학교,중학교,서울특별시,노원구,상계동,서울특별시 노원구 동일로227길 61,37.6670457,127.0533357
상원중학교,중학교,서울특별시,노원구,상계동,서울특별시 노원구 수락산로 182,37.6715436,127.0595044
선덕중학교,중학교,서울특별시,도봉구,쌍문동,서울특별시 도봉구 시루봉로 53,37.655351,127.0268289
정의여자중학교,중학교,서울특별시,도봉구,쌍문동,서울특별시 도봉구 노해로49길 69,37.6529105,127.0318063
창북중학교,중학교,서울특별시,도봉구,창동,서울특별시 도봉구 노해로62길 33,37.6494708,127.0385766
창일중학교,중학교,서울특별시,도봉구,창동,서울특별시 도봉구 노해로66길 60,37.6488018,127.0465188
노곡중학교,중학교,서울특별시,도봉구,창동,서울특별시 도봉구 노해로70길 95,37.6485909,127.053561
효문중학교,중학교,서울특별시,도봉구,쌍문동,서울특별시 도봉구 우이천로 432,37.6520737,127.0183774
신도봉중학교,중학교,서울특별시,도봉구,쌍문동,서울특별시 도봉구 도봉로115길 16,37.6492547,127.0331989
백운중학교,중학교,서울특별시,도봉구,쌍문동,서울특별시 도봉구 도봉로129길 50,37.6563724,127.0358991
창동중학교,중학교,서울특별시,도봉구,방학동,서울특별시 도봉구 방학로 32,37.6629833,127.0497887
방학중학교,중학교,서울특별시,도봉구,방학동,서울특별시 도봉구 시루봉로 188,37.6653358,127.0316064
신방학중학교,중학교,서울특별시,도봉구,방학동,서울특별시 도봉구 시루봉로 156,37.6636445,127.0295168
도봉중학교,중학교,서울특별시,도봉구,도봉동,서울특별시 도봉구 마들로 671,37.6707284,127.0459742
북서울중학교,중학교,서울특별시,도봉구,도봉동,서울특별시 도봉구 도봉로169가길 33,37.6813005,127.0430239
여의도중학교,중학교,서울특별시,영등포구,여의도동,서울특별시 영등포구 국제금융로7길 46,37.5239481,126.9357145
윤중중학교,중학교,서울특별시,영등포구,여의도동,서울특별시 영등포구 여의동로3길 3,37.5189785,126.923703
대영중학교,중학교,서울특별시,영등포구,신길동,서울특별시 영등포구 도림로80가길 14,37.503337,126.9049773
양화중학교,중학교,서울특별시,영등포구,문래동3가,서울특별시 영등포구 당산로 56,37.5197727,126.8960538
대림중학교,중학교,서울특별시,영등포구,대림동,서울특별시 영등포구 시흥대로185길 6,37.4920503,126.9077656
영남중학교,중학교,서울특별시,영등포구,대림동,서울특별시 영등포구 대림로31나길 17,37.4976237,126.8958925
선유중학교,중학교,서울특별시,영등포구,양평동3가,서울특별시 영등포구 선유로 213,37.5328432,126.8942213
문래중학교,중학교,서울특별시,영등포구,문래동6가,서울특별시 영등포구 선유서로13길 6,37.5202148,126.884443
당산서중학교,중학교,서울특별시,영등포구,당산동5가,서울특별시 영등포구 당산로41길 12,37.5322632,126.8985048
당산중학교,중학교,서울특별시,영등포구,당산동,서울특별시 영등포구 버드나루로 160,37.5314041,126.9075733
영원중학교,중학교,서울특별시,영등포구,영등포동,서울특별시 영등포구 영등포로62길 31,37.5150593,126.913731
동일중학교,중학교,서울특별시,금천구,시흥동,서울특별시 금천구 탑골로10길 45,37.45167193,126.9168874
문일중학교,중학교,서울특별시,금천구,시흥동,서울특별시 금천구 시흥대로47길 45,37.4493523,126.8984231
덕성여자중학교,중학교,서울특별시,종로구,송현동,서울특별시 종로구 율곡로3길 49,37.5779699,126.9817133
경신중학교,중학교,서울특별시,종로구,혜화동,서울특별시 종로구 혜화로 74,37.5914502,127.0006702
동성중학교,중학교,서울특별시,종로구,혜화동,서울특별시 종로구 대학로 156,37.5850524,127.0024292
대신중학교,중학교,서울특별시,종로구,행촌동,서울특별시 종로구 사직로 9,37.5734256,126.9618971
청운중학교,중학교,서울특별시,종로구,청운동,서울특별시 종로구 창의문로 51,37.5896155,126.970349
서울대학교사범대학부설여자중학교,중학교,서울특별시,종로구,동숭동,서울특별시 종로구 대학로 64,37.5770935,127.003843
재현중학교,중학교,서울특별시,노원구,중계동,서울특별시 노원구 덕릉로82길 64,37.6615474,127.0814504
청원중학교,중학교,서울특별시,노원구,상계동,서울특별시 노원구 한글비석로 506,37.6660284,127.0620129
상명중학교,중학교,서울특별시,노원구,중계동,서울특별시 노원구 덕릉로 553,37.6494211,127.0682006
염광중학교,중학교,서울특별시,노원구,월계동,서울특별시 노원구 월계로45가길 9,37.6302165,127.0492435
광운중학교,중학교,서울특별시,노원구,월계동,서울특별시 노원구 광운로1길 24,37.6208454,127.0561467
신상중학교,중학교,서울특별시,노원구,상계동,서울특별시 노원구 동일로216길 42,37.6516104,127.0636359
중평중학교,중학교,서울특별시,노원구,하계동,서울특별시 노원구 동일로203길 87,37.6369404,127.062228
중원중학교,중학교,서울특별시,노원구,중계동,서울특별시 노원구 공릉로 420,37.6441977,127.0680699
을지중학교,중학교,서울특별시,노원구,중계동,서울특별시 노원구 덕릉로 580,37.6495848,127.071707
중계중학교,중학교,서울특별시,노원구,중계동,서울특별시 노원구 덕릉로76길 23,37.6550962,127.0754735
상계제일중학교,중학교,서울특별시,노원구,중계동,서울특별시 노원구 덕릉로86길 29-15,37.661342,127.0777604
신창중학교,중학교,서울특별시,노원구,월계동,서울특별시 노원구 월계로45길 92,37.6283226,127.0474202
월계중학교,중학교,서울특별시,노원구,월계동,서울특별시 노원구 월계로45가길 54,37.6305995,127.0523673
녹천중학교,중학교,서울특별시,노원구,월계동,서울특별시 노원구 월계로 376,37.6313108,127.0620087
수락중학교,중학교,서울특별시,노원구,상계동,서울특별시 노원구 동일로 1729,37.6827948,127.0545923
노일중학교,중학교,서울특별시,노원구,상계동,서울특별시 노원구 동일로231길 24,37.6725826,127.0539025
노원중학교,중학교,서울특별시,노원구,상계동,서울특별시 노원구 동일로213길 26,37.6491471,127.0594579
온곡중학교,중학교,서울특별시,노원구,상계동,서울특별시 노원구 노원로 492,37.6602624,127.0644701
상계중학교,중학교,서울특별시,노원구,상계동,서울특별시 노원구 노원로 398,37.6526466,127.0688583
한천중학교,중학교,서울특별시,노원구,공릉동,서울특별시 노원구 공릉로 265,37.63131305,127.0724683
태랑중학교,중학교,서울특별시,노원구,공릉동,서울특별시 노원구 화랑로51나길 51,37.6266378,127.0918527
공릉중학교,중학교,서울특별시,노원구,공릉동,서울특별시 노원구 노원로1길 42,37.6222083,127.0837653
불암중학교,중학교,서울특별시,노원구,하계동,서울특별시 노원구 한글비석로5길 45,37.6459258,127.0735521
송파중학교,중학교,서울특별시,송파구,가락동,서울특별시 송파구 동남로 203,37.4960117,127.1297717
석촌중학교,중학교,서울특별시,송파구,가락동,서울특별시 송파구 송이로15길 13,37.5011612,127.1212477
잠실중학교,중학교,서울특별시,송파구,신천동,서울특별시 송파구 올림픽로35길 130,37.5178192,127.0986647
잠신중학교,중학교,서울특별시,송파구,잠실동,서울특별시 송파구 잠실로 12,37.5158407,127.0876619
신천중학교,중학교,서울특별시,송파구,잠실동,서울특별시 송파구 백제고분로 11,37.5162057,127.0783933
문정중학교,중학교,서울특별시,송파구,문정동,서울특별시 송파구 문정로 73,37.4885685,127.1299473
가원중학교,중학교,서울특별시,송파구,가락동,서울특별시 송파구 중대로10길 40-18,37.490634,127.1230469
오륜중학교,중학교,서울특별시,송파구,방이동,서울특별시 송파구 양재대로 1242,37.5161458,127.1388726
서울체육중학교,중학교,서울특별시,송파구,방이동,서울특별시 송파구 강동대로 232,37.5216734,127.130579
방산중학교,중학교,서울특별시,송파구,방이동,서울특별시 송파구 오금로29길 31,37.5091513,127.1219039
성심여자중학교,중학교,서울특별시,용산구,원효로4가,서울특별시 용산구 원효로19길 49,37.5341025,126.9542291
보성여자중학교,중학교,서울특별시,용산구,용산동2가,서울특별시 용산구 신흥로3가길 66,37.5426751,126.9844016
신광여자중학교,중학교,서울특별시,용산구,청파동3가,서울특별시 용산구 청파로 263,37.5431703,126.9699957
배문중학교,중학교,서울특별시,용산구,서계동,서울특별시 용산구 효창원로 258,37.54991971,126.9639049
오산중학교,중학교,서울특별시,용산구,보광동,서울특별시 용산구 보광로7길 17,37.52378179,127.0008688
용강중학교,중학교,서울특별시,용산구,이촌동,서울특별시 용산구 이촌로65가길 91,37.5211849,126.9758922
한강중학교,중학교,서울특별시,용산구,서빙고동,서울특별시 용산구 녹사평대로 73,37.523952,126.9923454
선린중학교,중학교,서울특별시,용산구,청파동3가,서울특별시 용산구 원효로97길 33-4,37.5427169,126.9663628
용산중학교,중학교,서울특별시,용산구,용산동2가,서울특별시 용산구 두텁바위로 74,37.5463224,126.9810267
장충중학교,중학교,서울특별시,중구,신당동,서울특별시 중구 동호로15길 93,37.5531662,127.0065905
대경중학교,중학교,서울특별시,중구,신당동,서울특별시 중구 매봉18길 111,37.55669583,127.0175331
한양중학교,중학교,서울특별시,중구,신당동,서울특별시 중구 을지로 299,37.5653699,127.0118163
장원중학교,중학교,서울특별시,중구,신당동,서울특별시 중구 동호로15길 93-34,37.5537683,127.0063639
덕수중학교,중학교,서울특별시,중구,인현동2가,서울특별시 중구 마른내로9길 10,37.5653267,126.9972317
금호여자중학교,중학교,서울특별시,중구,신당동,서울특별시 중구 청구로 6,37.5578679,127.0200384
창덕여자중학교,중학교,서울특별시,중구,정동,서울특별시 중구 정동길 22,37.5664694,126.9695822
중앙중학교,중학교,서울특별시,종로구,계동,서울특별시 종로구 창덕궁길 164,37.584897,126.9870352
상명대학교사범대학부속여자중학교,중학교,서울특별시,종로구,홍지동,서울특별시 종로구 홍지문2길 20,37.6041771,126.9556929
배화여자중학교,중학교,서울특별시,종로구,누상동,서울특별시 종로구 필운대로1길 34,37.57849658,126.9668889
동신중학교,중학교,서울특별시,강동구,천호동,서울특별시 강동구 진황도로 72,37.536407,127.1343241
천호중학교,중학교,서울특별시,강동구,천호동,서울특별시 강동구 상암로 153,37.5466448,127.1392699
강일중학교,중학교,서울특별시,강동구,암사동,서울특별시 강동구 고덕로27길 12,37.5551525,127.1382586
신암중학교,중학교,서울특별시,강동구,암사동,서울특별시 강동구 고덕로 65,37.555955,127.1330777
성내중학교,중학교,서울특별시,강동구,성내동,서울특별시 강동구 성안로7길 36,37.529222,127.1296609
한산중학교,중학교,서울특별시,강동구,둔촌동,서울특별시 강동구 풍성로 251,37.5287123,127.1402895
신명중학교,중학교,서울특별시,강동구,길동,서울특별시 강동구 명일로24길 25,37.54182637,127.1492982
명일중학교,중학교,서울특별시,강동구,고덕동,서울특별시 강동구 양재대로156길 57,37.557063,127.1477463
고덕중학교,중학교,서울특별시,강동구,고덕동,서울특별시 강동구 동남로82길 94,37.5601307,127.1610289
강동중학교,중학교,서울특별시,강동구,강일동,서울특별시 강동구 풍산로 237,37.5694623,127.177855
둔촌중학교,중학교,서울특별시,강동구,둔촌동,서울특별시 강동구 진황도로61길 25-30,37.5304436,127.145921
천일중학교,중학교,서울특별시,강동구,천호동,서울특별시 강동구 천중로 57,37.5458932,127.1275908
강명중학교,중학교,서울특별시,강동구,강일동,서울특별시 강동구 상일로12길 56,37.55559451,127.1748984
정신여자중학교,중학교,서울특별시,송파구,잠실동,서울특별시 송파구 올림픽로4길 16,37.5091964,127.0727415
일신여자중학교,중학교,서울특별시,송파구,송파동,서울특별시 송파구 송파대로38길 8,37.5017771,127.1135991
영파여자중학교,중학교,서울특별시,송파구,풍납동,서울특별시 송파구 올림픽로 565,37.5326565,127.1202571
보인중학교,중학교,서울특별시,송파구,오금동,서울특별시 송파구 오금로49길 18,37.497266,127.1388757
배명중학교,중학교,서울특별시,송파구,삼전동,서울특별시 송파구 삼학사로 11,37.4984761,127.0955809
보성중학교,중학교,서울특별시,송파구,방이동,서울특별시 송파구 양재대로 1278,37.5195022,127.1351642
문현중학교,중학교,서울특별시,송파구,장지동,서울특별시 송파구 충민로 99,37.4805468,127.1279339
아주중학교,중학교,서울특별시,송파구,잠실동,서울특별시 송파구 올림픽로4길 69,37.50522875,127.0765489
풍성중학교,중학교,서울특별시,송파구,풍납동,서울특별시 송파구 강동대로2길 27,37.5255948,127.1127759
풍납중학교,중학교,서울특별시,송파구,풍납동,서울특별시 송파구 올림픽로43길 20,37.5255375,127.1159443
오주중학교,중학교,서울특별시,송파구,오금동,서울특별시 송파구 동남로 281,37.50166,127.136224
오금중학교,중학교,서울특별시,송파구,오금동,서울특별시 송파구 오금로35길 20,37.5050018,127.1282173
세륜중학교,중학교,서울특별시,송파구,오금동,서울특별시 송파구 양재대로72길 41,37.5085227,127.1312179
가락중학교,중학교,서울특별시,송파구,송파동,서울특별시 송파구 송이로 45,37.5026324,127.1186676
방이중학교,중학교,서울특별시,송파구,방이동,서울특별시 송파구 오금로11길 64,37.5149532,127.113231
거원중학교,중학교,서울특별시,송파구,거여동,서울특별시 송파구 양산로2길 30,37.4874893,127.1465347
공진중학교,중학교,서울특별시,강서구,가양동,서울특별시 강서구 양천로55길 56,37.5664762,126.851037
수명중학교,중학교,서울특별시,강서구,내발산동,서울특별시 강서구 수명로2길 16,37.5486465,126.8236662
삼정중학교,중학교,서울특별시,강서구,방화동,서울특별시 강서구 금낭화로 210,37.581086,126.8108847
성재중학교,중학교,서울특별시,강서구,가양동,서울특별시 강서구 허준로 36,37.5692295,126.8452929
등명중학교,중학교,서울특별시,강서구,등촌동,서울특별시 강서구 공항대로39길 39,37.5601467,126.8433052
봉영여자중학교,중학교,서울특별시,양천구,신정동,서울특별시 양천구 목동동로2길 68,37.5090728,126.8607466
양정중학교,중학교,서울특별시,양천구,목동,서울특별시 양천구 안양천로 1039,37.5347501,126.8871706
영도중학교,중학교,서울특별시,양천구,목동,서울특별시 양천구 목동중앙남로 27,37.5364895,126.8663661
월촌중학교,중학교,서울특별시,양천구,목동,서울특별시 양천구 목동서로 31,37.5375617,126.882725
금옥중학교,중학교,서울특별시,양천구,신정동,서울특별시 양천구 신정로 213,37.5106219,126.8442611
목동중학교,중학교,서울특별시,양천구,신정동,서울특별시 양천구 목동동로 172,37.5206085,126.8717016
강신중학교,중학교,서울특별시,양천구,신월동,서울특별시 양천구 남부순환로 604,37.5150787,126.8388714
양천중학교,중학교,서울특별시,양천구,신월동,서울특별시 양천구 지양로7길 32,37.5195099,126.8307371
양강중학교,중학교,서울특별시,양천구,신월동,서울특별시 양천구 중앙로 319,37.5246363,126.849861
양서중학교,중학교,서울특별시,양천구,신월동,서울특별시 양천구 남부순환로 380,37.5322157,126.8291403
신원중학교,중학교,서울특별시,양천구,신월동,서울특별시 양천구 가로공원로55길 19,37.5367988,126.8238344
신월중학교,중학교,서울특별시,양천구,신월동,서울특별시 양천구 남부순환로29길 25,37.5406576,126.8285666
신화중학교,중학교,서울특별시,양천구,신월동,서울특별시 양천구 남부순환로29길 35,37.5406168,126.8300275
신남중학교,중학교,서울특별시,양천구,신월동,서울특별시 양천구 중앙로29길 109,37.520554,126.8478926
목일중학교,중학교,서울특별시,양천구,신정동,서울특별시 양천구 목동동로8길 70,37.5133313,126.8737628
신서중학교,중학교,서울특별시,양천구,신정동,서울특별시 양천구 중앙로 206,37.51596581,126.8550154
신목중학교,중학교,서울특별시,양천구,목동,서울특별시 양천구 목동중앙로 88,37.5368606,126.8728552
양동중학교,중학교,서울특별시,양천구,목동,서울특별시 양천구 목동중앙북로 49,37.5479348,126.8691419
목운중학교,중학교,서울특별시,양천구,목동,서울특별시 양천구 목동동로 235,37.5269022,126.8730106
한영중학교,중학교,서울특별시,강동구,상일동,서울특별시 강동구 동남로 832,37.5489092,127.1581466
성덕여자중학교,중학교,서울특별시,강동구,천호동,서울특별시 강동구 구천면로 396,37.5495933,127.1425564
상일여자중학교,중학교,서울특별시,강동구,상일동,서울특별시 강동구 천호대로219길 61,37.54795369,127.1702183
동북중학교,중학교,서울특별시,강동구,둔촌동,서울특별시 강동구 강동대로 305,37.5200101,127.1406733
배재중학교,중학교,서울특별시,강동구,고덕동,서울특별시 강동구 고덕로 227,37.5558123,127.1504916
동덕여자중학교,중학교,서울특별시,서초구,방배동,서울특별시 서초구 효령로2길 123-5,37.4759144,126.9927567
세화여자중학교,중학교,서울특별시,서초구,반포동,서울특별시 서초구 신반포로 56-7,37.5018559,126.9922636
신동중학교,중학교,서울특별시,서초구,잠원동,서울특별시 서초구 나루터로 27,37.5167005,127.0129459
언남중학교,중학교,서울특별시,서초구,양재동,서울특별시 서초구 동산로 55,37.4724059,127.0444116
서초중학교,중학교,서울특별시,서초구,서초동,서울특별시 서초구 반포대로13길 48,37.4854122,127.0087082
서운중학교,중학교,서울특별시,서초구,서초동,서울특별시 서초구 서운로 115,37.493993,127.0247303
서일중학교,중학교,서울특별시,서초구,서초동,서울특별시 서초구 서운로21길 2,37.4990561,127.0221387
방배중학교,중학교,서울특별시,서초구,반포동,서울특별시 서초구 동광로 144,37.4944786,126.9982545
신반포중학교,중학교,서울특별시,서초구,반포동,서울특별시 서초구 신반포로19길 26,37.5060693,126.995876
원촌중학교,중학교,서울특별시,서초구,반포동,서울특별시 서초구 사평대로45길 10,37.506062,127.0139388
경원중학교,중학교,서울특별시,서초구,잠원동,서울특별시 서초구 신반포로33길 39,37.5107518,127.0089613
이수중학교,중학교,서울특별시,서초구,방배동,서울특별시 서초구 방배중앙로3길 32,37.4809574,126.9903022
반포중학교,중학교,서울특별시,서초구,반포동,서울특별시 서초구 신반포로 67,37.5030439,126.9918514
등촌중학교,중학교,서울특별시,강서구,등촌동,서울특별시 강서구 공항대로 484-12,37.552641,126.8594058
덕원중학교,중학교,서울특별시,강서구,내발산동,서울특별시 강서구 강서로45길 91-44,37.5485816,126.8290111
신정여자중학교,중학교,서울특별시,강서구,화곡동,서울특별시 강서구 등촌로13아길 20,37.5380245,126.8568925
명덕여자중학교,중학교,서울특별시,강서구,내발산동,서울특별시 강서구 강서로47길 34-10,37.5536011,126.834718
화곡중학교,중학교,서울특별시,강서구,내발산동,서울특별시 강서구 강서로45길 70,37.5488204,126.8328267
마포중학교,중학교,서울특별시,강서구,등촌동,서울특별시 강서구 화곡로 403,37.55998993,126.8531328
등원중학교,중학교,서울특별시,강서구,등촌동,서울특별시 강서구 화곡로65길 50,37.5597222,126.851607
화원중학교,중학교,서울특별시,강서구,화곡동,서울특별시 강서구 강서로17나길 86,37.5363887,126.8425137
염경중학교,중학교,서울특별시,강서구,염창동,서울특별시 강서구 양천로69길 35,37.5540683,126.8707547
염창중학교,중학교,서울특별시,강서구,염창동,서울특별시 강서구 양천로67가길 83,37.5539218,126.8717382
방원중학교,중학교,서울특별시,강서구,방화동,서울특별시 강서구 금낭화로 268,37.5760462,126.8088127
방화중학교,중학교,서울특별시,강서구,방화동,서울특별시 강서구 개화동로27길 9,37.5651074,126.8068782
백석중학교,중학교,서울특별시,강서구,등촌동,서울특별시 강서구 등촌로51나길 35,37.5483517,126.858808
송정중학교,중학교,서울특별시,강서구,공항동,서울특별시 강서구 남부순환로 121,37.5537316,126.8150759
공항중학교,중학교,서울특별시,강서구,공항동,서울특별시 강서구 방화대로 241,37.5624596,126.8153399
경서중학교,중학교,서울특별시,강서구,가양동,서울특별시 강서구 양천로59길 31,37.56124257,126.8577618
영등포중학교,중학교,서울특별시,동작구,대방동,서울특별시 동작구 등용로8길 5,37.50905578,126.9347349
상도중학교,중학교,서울특별시,동작구,사당동,서울특별시 동작구 사당로2가길 72,37.4908204,126.961525
동작중학교,중학교,서울특별시,동작구,동작동,서울특별시 동작구 동작대로39가길 83,37.4949969,126.9772383
국사봉중학교,중학교,서울특별시,동작구,상도동,서울특별시 동작구 양녕로20길 20,37.4935736,126.9441046
상현중학교,중학교,서울특별시,동작구,상도동,서울특별시 동작구 사당로2길 2-19,37.4939896,126.9603553
강남중학교,중학교,서울특별시,동작구,대방동,서울특별시 동작구 대방동15길 29,37.50276353,126.923345
은성중학교,중학교,서울특별시,강남구,도곡동,서울특별시 강남구 남부순환로359길 36,37.4879414,127.0359252
진선여자중학교,중학교,서울특별시,강남구,역삼동,서울특별시 강남구 선릉로85길 27,37.501754,127.0476387
숙명여자중학교,중학교,서울특별시,강남구,도곡동,서울특별시 강남구 남부순환로 2807,37.4907295,127.0533366
중동중학교,중학교,서울특별시,강남구,일원동,서울특별시 강남구 일원로8길 37,37.488319,127.0786207
단국대학교사범대학부속중학교,중학교,서울특별시,강남구,대치동,서울특별시 강남구 도곡로64길 21,37.4953357,127.0564936
휘문중학교,중학교,서울특별시,강남구,대치동,서울특별시 강남구 역삼로 541,37.504951,127.0620662
개원중학교,중학교,서울특별시,강남구,개포동,서울특별시 강남구 영동대로 101,37.4918658,127.071402
청담중학교,중학교,서울특별시,강남구,청담동,서울특별시 강남구 압구정로61길 36,37.5285802,127.0454332
역삼중학교,중학교,서울특별시,강남구,역삼동,서울특별시 강남구 도곡로43길 10,37.4956447,127.0490787
압구정중학교,중학교,서울특별시,강남구,압구정동,서울특별시 강남구 압구정로 225,37.5302105,127.0329599
신구중학교,중학교,서울특별시,강남구,신사동,서울특별시 강남구 압구정로36길 17,37.5273302,127.0322082
수서중학교,중학교,서울특별시,강남구,수서동,서울특별시 강남구 광평로59길 57,37.4910655,127.1023885
봉은중학교,중학교,서울특별시,강남구,삼성동,서울특별시 강남구 영동대로128길 59,37.5189411,127.0621196
언주중학교,중학교,서울특별시,강남구,삼성동,서울특별시 강남구 선릉로116길 57,37.51465442,127.0466835
도곡중학교,중학교,서울특별시,강남구,도곡동,서울특별시 강남구 언주로57길 31,37.4923472,127.0450882
대치중학교,중학교,서울특별시,강남구,도곡동,서울특별시 강남구 남부순환로378길 39,37.4845654,127.0472825
대명중학교,중학교,서울특별시,강남구,대치동,서울특별시 강남구 역삼로87길 26,37.5063402,127.0608974
구룡중학교,중학교,서울특별시,강남구,개포동,서울특별시 강남구 선릉로 103,37.4862777,127.0560795
대청중학교,중학교,서울특별시,강남구,대치동,서울특별시 강남구 양재천로 321,37.4905203,127.0583895
대왕중학교,중학교,서울특별시,강남구,수서동,서울특별시 강남구 광평로20길 7,37.483438,127.0873271
신사중학교,중학교,서울특별시,강남구,압구정동,서울특별시 강남구 압구정로 123,37.5247079,127.02115
언북중학교,중학교,서울특별시,강남구,논현동,서울특별시 강남구 도산대로38길 27,37.51928,127.033073
서문여자중학교,중학교,서울특별시,서초구,방배동,서울특별시 서초구 동광로12길 84,37.4885743,126.985083
성수중학교,중학교,서울특별시,성동구,성수동1가,서울특별시 성동구 서울숲길 18,37.547981,127.0387013
광희중학교,중학교,서울특별시,성동구,응봉동,서울특별시 성동구 독서당로62길 46,37.5511529,127.0339817
무학중학교,중학교,서울특별시,성동구,행당동,서울특별시 성동구 행당로 120,37.5576839,127.0319747
성보중학교,중학교,서울특별시,관악구,신림동,서울특별시 관악구 남부순환로156길 39,37.4801177,126.9207947
광신중학교,중학교,서울특별시,관악구,신림동,서울특별시 관악구 광신길 141,37.4651411,126.9256312
서울문영여자중학교,중학교,서울특별시,관악구,봉천동,서울특별시 관악구 관악로 85,37.4731302,126.9513293
남강중학교,중학교,서울특별시,관악구,신림동,서울특별시 관악구 난곡로34길 80,37.4719974,126.9247473
남서울중학교,중학교,서울특별시,관악구,신림동,서울특별시 관악구 남부순환로172길 97,37.48213616,126.921037
미성중학교,중학교,서울특별시,관악구,신림동,서울특별시 관악구 문성로16길 40,37.4754058,126.9122182
난우중학교,중학교,서울특별시,관악구,신림동,서울특별시 관악구 난곡로16길 32,37.4666807,126.9228102
삼성중학교,중학교,서울특별시,관악구,신림동,서울특별시 관악구 신림로3가길 39-24,37.4673643,126.9428252
신림중학교,중학교,서울특별시,관악구,신림동,서울특별시 관악구 신림로 40,37.4705384,126.9453094
신관중학교,중학교,서울특별시,관악구,신림동,서울특별시 관악구 신림로48길 17-16,37.479929,126.9344578
인헌중학교,중학교,서울특별시,관악구,봉천동,서울특별시 관악구 인헌9길 35,37.4729052,126.9695872
관악중학교,중학교,서울특별시,관악구,봉천동,서울특별시 관악구 남부순환로237길 60,37.4808692,126.9618525
봉원중학교,중학교,서울특별시,관악구,봉천동,서울특별시 관악구 관악로24가길 15,37.4840797,126.9583607
구암중학교,중학교,서울특별시,관악구,봉천동,서울특별시 관악구 성현로 53,37.4925845,126.9485751
당곡중학교,중학교,서울특별시,관악구,봉천동,서울특별시 관악구 봉천로13길 101,37.4919353,126.9330422
봉림중학교,중학교,서울특별시,관악구,봉천동,서울특별시 관악구 장군봉길 72,37.4806354,126.9381575
중앙대학교사범대학부속중학교,중학교,서울특별시,동작구,흑석동,서울특별시 동작구 서달로 124,37.50362915,126.9617331
숭의여자중학교,중학교,서울특별시,동작구,대방동,서울특별시 동작구 여의대방로36길 79,37.5073276,126.9292344
성남중학교,중학교,서울특별시,동작구,대방동,서울특별시 동작구 대방동길 74,37.50528121,126.9266132
동양중학교,중학교,서울특별시,동작구,흑석동,서울특별시 동작구 흑석로9길 94,37.5101255,126.9562366
대방중학교,중학교,서울특별시,동작구,신대방동,서울특별시 동작구 여의대방로10길 24,37.4952932,126.913764
문창중학교,중학교,서울특별시,동작구,신대방동,서울특별시 동작구 여의대방로22나길 40,37.4958029,126.921645
강현중학교,중학교,서울특별시,동작구,상도동,서울특별시 동작구 상도로13라길 22,37.5032309,126.9314655
장승중학교,중학교,서울특별시,동작구,상도동,서울특별시 동작구 장승배기로10가길 25,37.5031484,126.9408336
남성중학교,중학교,서울특별시,동작구,사당동,서울특별시 동작구 남부순환로269길 166,37.4789892,126.972489
사당중학교,중학교,서울특별시,동작구,사당동,서울특별시 동작구 사당로9가길 58,37.4876148,126.9688695
북악중학교,중학교,서울특별시,성북구,정릉동,서울특별시 성북구 정릉로12길 41,37.6067612,127.0017022
장위중학교,중학교,서울특별시,성북구,장위동,서울특별시 성북구 장위로4길 70,37.6113882,127.0415045
개운중학교,중학교,서울특별시,성북구,돈암동,서울특별시 성북구 북악산로 935,37.5944775,127.0248807
석관중학교,중학교,서울특별시,성북구,석관동,서울특별시 성북구 한천로 526,37.6081903,127.0664388
숭곡중학교,중학교,서울특별시,성북구,하월곡동,서울특별시 성북구 종암로 208,37.6084237,127.0313391
월곡중학교,중학교,서울특별시,성북구,상월곡동,서울특별시 성북구 장월로 6,37.6067125,127.0480815
삼선중학교,중학교,서울특별시,성북구,동소문동4가,서울특별시 성북구 동소문로3길 69,37.5911454,127.0079042
서울대학교사범대학부설중학교,중학교,서울특별시,성북구,종암동,서울특별시 성북구 월곡로 36,37.59581903,127.0391338
길음중학교,중학교,서울특별시,성북구,길음동,서울특별시 성북구 길음로 144,37.613752,127.0170477
건국대학교사범대학부속중학교,중학교,서울특별시,광진구,화양동,서울특별시 광진구 자양로 145-1,37.54172317,127.0815966
대원국제중학교,중학교,서울특별시,광진구,중곡동,서울특별시 광진구 용마산로22길 26,37.563079,127.0889497
동국대학교사범대학부속여자중학교,중학교,서울특별시,광진구,구의동,서울특별시 광진구 광나루로36길 47,37.5425112,127.0867784
구의중학교,중학교,서울특별시,광진구,화양동,서울특별시 광진구 광나루로30길 80,37.542871,127.0788098
용곡중학교,중학교,서울특별시,광진구,중곡동,서울특별시 광진구 용마산로22길 76,37.5659416,127.0889488
광진중학교,중학교,서울특별시,광진구,자양동,서울특별시 광진구 뚝섬로64길 45,37.5322529,127.0899425
광양중학교,중학교,서울특별시,광진구,자양동,서울특별시 광진구 자양로3길 7,37.5301959,127.0860302
신양중학교,중학교,서울특별시,광진구,자양동,서울특별시 광진구 자양강변길 73,37.5334046,127.0631265
광남중학교,중학교,서울특별시,광진구,광장동,서울특별시 광진구 아차산로70길 17-62,37.5404965,127.1013527
양진중학교,중학교,서울특별시,광진구,광장동,서울특별시 광진구 워커힐로 32,37.5444966,127.0983485
광장중학교,중학교,서울특별시,광진구,광장동,서울특별시 광진구 광장로1길 1,37.5471908,127.1017601
자양중학교,중학교,서울특별시,광진구,자양동,서울특별시 광진구 뚝섬로41길 33,37.5352283,127.0745207
한양대학교사범대학부속중학교,중학교,서울특별시,성동구,사근동,서울특별시 성동구 마조로 42,37.56191893,127.042326
행당중학교,중학교,서울특별시,성동구,행당동,서울특별시 성동구 왕십리로 189,37.5544241,127.041886
옥정중학교,중학교,서울특별시,성동구,옥수동,서울특별시 성동구 한림말길 11,37.5414774,127.0125119
성원중학교,중학교,서울특별시,성동구,성수동2가,서울특별시 성동구 성덕정9가길 13,37.5393617,127.0513099
경일중학교,중학교,서울특별시,성동구,성수동1가,서울특별시 성동구 성수일로 27,37.5435875,127.0480483
마장중학교,중학교,서울특별시,성동구,마장동,서울특별시 성동구 마장로35나길 31,37.5682297,127.042205
동마중학교,중학교,서울특별시,성동구,마장동,서울특별시 성동구 마조로11길 18,37.5626557,127.0403012
경수중학교,중학교,서울특별시,성동구,성수동2가,서울특별시 성동구 뚝섬로13길 14,37.53950922,127.0592721
영훈국제중학교,중학교,서울특별시,강북구,미아동,서울특별시 강북구 도봉로13가길 19,37.613765,127.0278332
성암여자중학교,중학교,서울특별시,강북구,미아동,서울특별시 강북구 도봉로29길 52,37.6207774,127.0244484
창문여자중학교,중학교,서울특별시,강북구,미아동,서울특별시 강북구 월계로 61,37.6131144,127.036282
신일중학교,중학교,서울특별시,강북구,미아동,서울특별시 강북구 솔매로49길 20,37.6282824,127.0282661
서라벌중학교,중학교,서울특별시,강북구,우이동,서울특별시 강북구 삼양로155길 37-9,37.6568687,127.0111715
화계중학교,중학교,서울특별시,강북구,수유동,서울특별시 강북구 화계사길 63,37.63251698,127.0097112
수유중학교,중학교,서울특별시,강북구,수유동,서울특별시 강북구 인수봉로37길 40,37.631337,127.0109264
인수중학교,중학교,서울특별시,강북구,수유동,서울특별시 강북구 인수봉로75길 10,37.6438503,127.0099435
번동중학교,중학교,서울특별시,강북구,번동,서울특별시 강북구 오현로35길 87,37.6325721,127.0362701
미양중학교,중학교,서울특별시,강북구,미아동,서울특별시 강북구 인수봉로 39,37.6232973,127.0122428
삼각산중학교,중학교,서울특별시,강북구,미아동,서울특별시 강북구 삼양로19길 141,37.6161958,127.0146577
강북중학교,중학교,서울특별시,강북구,수유동,서울특별시 강북구 한천로150길 67,37.6449188,127.0259441
수송중학교,중학교,서울특별시,강북구,번동,서울특별시 강북구 한천로122길 21,37.6364725,127.0339379
고려대학교사범대학부속중학교,중학교,서울특별시,성북구,정릉동,서울특별시 성북구 정릉로 161,37.6098269,127.001572
성신여자중학교,중학교,서울특별시,성북구,돈암동,서울특별시 성북구 북악산로 918,37.5938951,127.0232532
한성여자중학교,중학교,서울특별시,성북구,삼선동2가,서울특별시 성북구 삼선교로16길 118,37.58200014,127.0113123
동구여자중학교,중학교,서울특별시,성북구,성북동,서울특별시 성북구 성북로8길 71,37.5935994,127.0071027
남대문중학교,중학교,서울특별시,성북구,장위동,서울특별시 성북구 한천로95길 28,37.6186278,127.0557873
홍익대학교사범대학부속중학교,중학교,서울특별시,성북구,성북동,서울특별시 성북구 성북로14가길 23,37.5940995,127.0032562
용문중학교,중학교,서울특별시,성북구,안암동2가,서울특별시 성북구 인촌로17가길 46,37.5881284,127.0250507
고명중학교,중학교,서울특별시,성북구,돈암동,서울특별시 성북구 북악산로 870,37.5975051,127.0199016
종암중학교,중학교,서울특별시,성북구,종암동,서울특별시 성북구 종암로5길 80-17,37.5929663,127.0317443
서울구의초등학교,초등학교,서울특별시,광진구,화양동,서울특별시 광진구 광나루로30길 49,37.5429178,127.0799578
서울화양초등학교,초등학교,서울특별시,광진구,화양동,서울특별시 광진구 군자로 9,37.5442711,127.0710885
서울용곡초등학교,초등학교,서울특별시,광진구,중곡동,서울특별시 광진구 용마산로22길 82,37.5667073,127.0888036
서울중마초등학교,초등학교,서울특별시,광진구,중곡동,서울특별시 광진구 동일로72길 43,37.5658572,127.0795806
서울중광초등학교,초등학교,서울특별시,광진구,중곡동,서울특별시 광진구 긴고랑로13길 59,37.5651174,127.0823539
서울용마초등학교,초등학교,서울특별시,광진구,중곡동,서울특별시 광진구 천호대로113길 10,37.5580253,127.0842831
서울양남초등학교,초등학교,서울특별시,광진구,자양동,서울특별시 광진구 뚝섬로64길 71,37.5307926,127.0896606
서울성자초등학교,초등학교,서울특별시,광진구,자양동,서울특별시 광진구 뚝섬로56길 7,37.5313762,127.083306
서울신자초등학교,초등학교,서울특별시,광진구,자양동,서울특별시 광진구 뚝섬로46길 64,37.530094,127.0754494
서울신양초등학교,초등학교,서울특별시,광진구,자양동,서울특별시 광진구 능동로 42,37.5344735,127.0695411
서울동자초등학교,초등학교,서울특별시,광진구,자양동,서울특별시 광진구 뚝섬로 561,37.5346695,127.072115
서울자양초등학교,초등학교,서울특별시,광진구,자양동,서울특별시 광진구 아차산로44길 26,37.5369104,127.079457
서울장안초등학교,초등학교,서울특별시,광진구,군자동,서울특별시 광진구 군자로 74,37.550187,127.0723512
서울우이초등학교,초등학교,서울특별시,강북구,수유동,서울특별시 강북구 삼양로99길 36,37.6382919,127.0149018
서울인수초등학교,초등학교,서울특별시,강북구,수유동,서울특별시 강북구 인수봉로 269,37.6428713,127.0095645
서울수유초등학교,초등학교,서울특별시,강북구,수유동,서울특별시 강북구 삼양로74길 39,37.6309311,127.0202469
서울수송초등학교,초등학교,서울특별시,강북구,번동,서울특별시 강북구 한천로124길 14,37.6368875,127.0332312
서울미양초등학교,초등학교,서울특별시,강북구,미아동,서울특별시 강북구 솔샘로 195,37.6214401,127.0134047
서울화계초등학교,초등학교,서울특별시,강북구,미아동,서울특별시 강북구 솔매로50가길 25,37.6237383,127.0290073
서울송중초등학교,초등학교,서울특별시,강북구,미아동,서울특별시 강북구 오현로 9,37.6171496,127.0314853
서울송천초등학교,초등학교,서울특별시,강북구,미아동,서울특별시 강북구 삼양로20길 29,37.6157991,127.0234085
서울삼각산초등학교,초등학교,서울특별시,강북구,미아동,서울특별시 강북구 삼양로19길 141,37.6161958,127.0146577
서울삼양초등학교,초등학교,서울특별시,강북구,미아동,서울특별시 강북구 삼양로49길 17,37.6236198,127.0163359
서울오현초등학교,초등학교,서울특별시,강북구,번동,서울특별시 강북구 월계로 221,37.6233407,127.0466629
서울번동초등학교,초등학교,서울특별시,강북구,번동,서울특별시 강북구 오현로 204,37.6288618,127.040486
매원초등학교,초등학교,서울특별시,성북구,돈암동,서울특별시 성북구 북악산로 870,37.5975051,127.0199016
광운초등학교,초등학교,서울특별시,성북구,장위동,서울특별시 성북구 한천로 693,37.6185837,127.0547069
대광초등학교,초등학교,서울특별시,성북구,보문동7가,서울특별시 성북구 안암로 5,37.5790746,127.0235617
우촌초등학교,초등학교,서울특별시,성북구,돈암동,서울특별시 성북구 성북로4길 52-1,37.5956079,127.011768
성신초등학교,초등학교,서울특별시,성북구,돈암동,서울특별시 성북구 북악산로 918,37.5938951,127.0232532
서울숭인초등학교,초등학교,서울특별시,성북구,하월곡동,서울특별시 성북구 오패산로16길 37,37.6086811,127.0383578
서울숭례초등학교,초등학교,서울특별시,성북구,종암동,서울특별시 성북구 종암로5길 14,37.5946714,127.0351047
서울일신초등학교,초등학교,서울특별시,성북구,종암동,서울특별시 성북구 월곡로 74,37.598358,127.0403502
서울청덕초등학교,초등학교,서울특별시,성북구,정릉동,서울특별시 성북구 정릉로9라길 11,37.6120317,127.0003392
서울정릉초등학교,초등학교,서울특별시,성북구,정릉동,서울특별시 성북구 솔샘로25가길 8,37.6196406,127.0052212
서울정수초등학교,초등학교,서울특별시,성북구,정릉동,서울특별시 성북구 정릉로24길 58,37.6038358,127.0076054
서울장곡초등학교,초등학교,서울특별시,성북구,장위동,서울특별시 성북구 장월로23길 16,37.6167024,127.0479449
서울장위초등학교,초등학교,서울특별시,성북구,장위동,서울특별시 성북구 장월로8가길 41,37.6118041,127.0499238
서울성북초등학교,초등학교,서울특별시,성북구,성북동,서울특별시 성북구 성북로 102-10,37.59405236,126.9987771
서울석관초등학교,초등학교,서울특별시,성북구,석관동,서울특별시 성북구 돌곶이로22길 21,37.6108859,127.0587469
서울석계초등학교,초등학교,서울특별시,성북구,석관동,서울특별시 성북구 한천로58길 273,37.6087957,127.0697429
서울개운초등학교,초등학교,서울특별시,성북구,돈암동,서울특별시 성북구 정릉로48길 52,37.6016762,127.0275455
영훈초등학교,초등학교,서울특별시,강북구,미아동,서울특별시 강북구 도봉로13가길 19,37.613765,127.0278071
서울유현초등학교,초등학교,서울특별시,강북구,수유동,서울특별시 강북구 인수봉로37길 24,37.631794,127.0119185
서울구남초등학교,초등학교,서울특별시,광진구,구의동,서울특별시 광진구 구의강변로 69,37.5369552,127.0922582
서울광진초등학교,초등학교,서울특별시,광진구,구의동,서울특별시 광진구 자양로40길 41,37.5475549,127.0913267
서울동의초등학교,초등학교,서울특별시,광진구,구의동,서울특별시 광진구 영화사로 111,37.5533639,127.0988011
서울광장초등학교,초등학교,서울특별시,광진구,광장동,서울특별시 광진구 광장로1길 27,37.548446,127.1009404
서울광남초등학교,초등학교,서울특별시,광진구,광장동,서울특별시 광진구 아차산로70길 35,37.5408154,127.1009346
서울양진초등학교,초등학교,서울특별시,광진구,광장동,서울특별시 광진구 워커힐로 32,37.5444966,127.0983249
한양초등학교,초등학교,서울특별시,성동구,사근동,서울특별시 성동구 살곶이길 208,37.5577626,127.0506164
서울행현초등학교,초등학교,서울특별시,성동구,행당동,서울특별시 성동구 행당로 95,37.5575664,127.0293584
서울무학초등학교,초등학교,서울특별시,성동구,하왕십리동,서울특별시 성동구 무학봉15길 21,37.5632029,127.029532
서울응봉초등학교,초등학교,서울특별시,성동구,응봉동,서울특별시 성동구 독서당로62길 28,37.55025195,127.0338274
서울용답초등학교,초등학교,서울특별시,성동구,용답동,서울특별시 성동구 용답25길 1,37.5607301,127.0535393
서울옥정초등학교,초등학교,서울특별시,성동구,옥수동,서울특별시 성동구 한림말길 43,37.5418992,127.0156748
서울송원초등학교,초등학교,서울특별시,성동구,송정동,서울특별시 성동구 동일로43길 9,37.5542158,127.0694688
서울미아초등학교,초등학교,서울특별시,성북구,길음동,서울특별시 성북구 삼양로 77,37.6105142,127.0215272
서울길음초등학교,초등학교,서울특별시,성북구,길음동,서울특별시 성북구 길음로 142,37.6138873,127.0170282
서울월곡초등학교,초등학교,서울특별시,성북구,장위동,서울특별시 성북구 장월로3길 42,37.6098232,127.0464227
서울장월초등학교,초등학교,서울특별시,성북구,장위동,서울특별시 성북구 한천로101길 66,37.62164,127.0471628
서울숭곡초등학교,초등학교,서울특별시,성북구,하월곡동,서울특별시 성북구 종암로40길 30,37.6084672,127.0327171
서울길원초등학교,초등학교,서울특별시,성북구,길음동,서울특별시 성북구 길음로15길 55(길음동),37.6089012,127.0167359
서울숭덕초등학교,초등학교,서울특별시,성북구,정릉동,서울특별시 성북구 정릉로 279,37.6039265,127.013379
서울동신초등학교,초등학교,서울특별시,성북구,보문동3가,서울특별시 성북구 보문사길 50,37.5828688,127.0168792
서울안암초등학교,초등학교,서울특별시,성북구,안암동2가,서울특별시 성북구 고려대로7가길 39(안암동2가),37.5871519,127.022577
서울삼선초등학교,초등학교,서울특별시,성북구,삼선동3가,서울특별시 성북구 보문로29길 106,37.5861798,127.0125195
서울정덕초등학교,초등학교,서울특별시,성북구,동소문동7가,서울특별시 성북구 아리랑로 63,37.5979453,127.0133571
서울돈암초등학교,초등학교,서울특별시,성북구,동소문동6가,서울특별시 성북구 동소문로13길 38,37.5937144,127.0131031
성동초등학교,초등학교,서울특별시,광진구,자양동,서울특별시 광진구 자양로4길 63,37.53328065,127.0892809
경복초등학교,초등학교,서울특별시,광진구,능동,서울특별시 광진구 천호대로130길 58,37.5498296,127.0867929
세종초등학교,초등학교,서울특별시,광진구,군자동,서울특별시 광진구 군자로 114,37.55302019,127.0728767
서울면중초등학교,초등학교,서울특별시,중랑구,면목동,서울특별시 중랑구 용마산로70길 43,37.5824024,127.0966419
서울면일초등학교,초등학교,서울특별시,중랑구,망우동,서울특별시 중랑구 용마산로100길 13,37.5921204,127.0998536
서울망우초등학교,초등학교,서울특별시,중랑구,망우동,서울특별시 중랑구 망우로72길 49,37.598329,127.1035908
서울면북초등학교,초등학교,서울특별시,중랑구,망우동,서울특별시 중랑구 용마공원로5길 32,37.5944753,127.1034704
서울동원초등학교,초등학교,서울특별시,중랑구,망우동,서울특별시 중랑구 송림길 114,37.6047385,127.1049497
서울면남초등학교,초등학교,서울특별시,중랑구,면목동,서울특별시 중랑구 면목로30나길 38,37.5769839,127.0880206
서울면목초등학교,초등학교,서울특별시,중랑구,면목동,서울특별시 중랑구 면목로 434,37.591356,127.0876154
은석초등학교,초등학교,서울특별시,동대문구,장안동,서울특별시 동대문구 장안벚꽃로 205,37.5785598,127.0757635
서울삼육초등학교,초등학교,서울특별시,동대문구,회기동,서울특별시 동대문구 회기로10길 63,37.5891291,127.0477488
경희초등학교,초등학교,서울특별시,동대문구,회기동,서울특별시 동대문구 경희대로 26,37.5939495,127.0548902
서울휘봉초등학교,초등학교,서울특별시,동대문구,휘경동,서울특별시 동대문구 장안벚꽃로 309,37.5859982,127.0701251
서울청량초등학교,초등학교,서울특별시,동대문구,회기동,서울특별시 동대문구 회기로25길 31,37.5919847,127.0558443
서울홍릉초등학교,초등학교,서울특별시,동대문구,청량리동,서울특별시 동대문구 회기로 90,37.5909805,127.0474406
서울종암초등학교,초등학교,서울특별시,동대문구,제기동,서울특별시 동대문구 무학로44길 25,37.5821589,127.0311722
서울홍파초등학교,초등학교,서울특별시,동대문구,제기동,서울특별시 동대문구 고산자로 518,37.5858976,127.0395874
서울전농초등학교,초등학교,서울특별시,동대문구,전농동,서울특별시 동대문구 사가정로 66,37.5744176,127.0542426
서울전곡초등학교,초등학교,서울특별시,동대문구,전농동,서울특별시 동대문구 전농로 172,37.5805755,127.0562692
서울전동초등학교,초등학교,서울특별시,동대문구,전농동,서울특별시 동대문구 전농로16길 61,37.5790952,127.061138
서울배봉초등학교,초등학교,서울특별시,동대문구,전농동,서울특별시 동대문구 사가정로 193,37.580028,127.0659414
서울안평초등학교,초등학교,서울특별시,동대문구,장안동,서울특별시 동대문구 장한로14길 61,37.5657116,127.0713495
서울장평초등학교,초등학교,서울특별시,동대문구,장안동,서울특별시 동대문구 답십리로69길 27,37.5738074,127.0732688
서울군자초등학교,초등학교,서울특별시,동대문구,장안동,서울특별시 동대문구 한천로6길 21,37.5643015,127.0613471
서울이문초등학교,초등학교,서울특별시,동대문구,이문동,서울특별시 동대문구 신이문로 16,37.60204,127.0641929
서울용두초등학교,초등학교,서울특별시,동대문구,용두동,서울특별시 동대문구 천호대로13길 43,37.5757428,127.0288848
서울신답초등학교,초등학교,서울특별시,동대문구,답십리동,서울특별시 동대문구 천호대로 177,37.5730006,127.0433994
서울답십리초등학교,초등학교,서울특별시,동대문구,답십리동,서울특별시 동대문구 전농로3길 23,37.569003,127.0554225
서울동답초등학교,초등학교,서울특별시,동대문구,답십리동,서울특별시 동대문구 답십리로60길 12,37.5718166,127.0642055
서울휘경초등학교,초등학교,서울특별시,동대문구,휘경동,서울특별시 동대문구 망우로6길 48,37.5857358,127.0581216
서울불광초등학교,초등학교,서울특별시,은평구,불광동,서울특별시 은평구 불광로 51,37.61342855,126.9307204
서울연신초등학교,초등학교,서울특별시,은평구,불광동,서울특별시 은평구 연서로 347,37.6262605,126.9282737
서울대조초등학교,초등학교,서울특별시,은평구,대조동,서울특별시 은평구 연서로18길 17,37.6132233,126.9195884
서울수리초등학교,초등학교,서울특별시,은평구,불광동,서울특별시 은평구 불광로14길 10-10,37.6204888,126.9342435
서울녹번초등학교,초등학교,서울특별시,은평구,녹번동,서울특별시 은평구 녹번로1길 1,37.604291,126.926111
서울은평초등학교,초등학교,서울특별시,은평구,녹번동,서울특별시 은평구 은평로 239,37.6019568,126.9341059
서울구산초등학교,초등학교,서울특별시,은평구,구산동,서울특별시 은평구 서오릉로15길 16,37.6124476,126.9094521
서울구현초등학교,초등학교,서울특별시,은평구,구산동,서울특별시 은평구 갈현로15길 51,37.6092227,126.9058482
서울갈현초등학교,초등학교,서울특별시,은평구,갈현동,서울특별시 은평구 연서로29길 31,37.6192587,126.9166431
서울북한산초등학교,초등학교,서울특별시,은평구,진관동,서울특별시 은평구 대서문길 42-3,37.6540522,126.950338
서울진관초등학교,초등학교,서울특별시,은평구,진관동,서울특별시 은평구 진관4로 78-16,37.645051,126.9291301
서울은진초등학교,초등학교,서울특별시,은평구,진관동,서울특별시 은평구 진관1로 21-20,37.632607,126.9209282
서울신도초등학교,초등학교,서울특별시,은평구,진관동,서울특별시 은평구 진관1로 77-23,37.6327684,126.9291409
서울은빛초등학교,초등학교,서울특별시,은평구,진관동,서울특별시 은평구 진관3로 73-17,37.6351712,126.9200278
금성초등학교,초등학교,서울특별시,중랑구,신내동,서울특별시 중랑구 신내로21길 55,37.6150153,127.0900306
서울중흥초등학교,초등학교,서울특별시,중랑구,중화동,서울특별시 중랑구 봉화산로 82,37.6016352,127.08414
서울묵동초등학교,초등학교,서울특별시,중랑구,중화동,서울특별시 중랑구 동일로138길 27,37.6040651,127.0814383
서울봉화초등학교,초등학교,서울특별시,중랑구,신내동,서울특별시 중랑구 신내로15길 110,37.613289,127.0923924
서울중화초등학교,초등학교,서울특별시,중랑구,신내동,서울특별시 중랑구 신내로7가길 22,37.6030032,127.0946485
서울신내초등학교,초등학교,서울특별시,중랑구,신내동,서울특별시 중랑구 용마산로125나길 22,37.6048021,127.1001538
서울신현초등학교,초등학교,서울특별시,중랑구,신내동,서울특별시 중랑구 봉화산로 188,37.6055132,127.0934688
서울상봉초등학교,초등학교,서울특별시,중랑구,상봉동,서울특별시 중랑구 동일로126가길 11,37.5981845,127.0836798
서울신묵초등학교,초등학교,서울특별시,중랑구,묵동,서울특별시 중랑구 동일로149길 46,37.6072679,127.0755519
서울묵현초등학교,초등학교,서울특별시,중랑구,묵동,서울특별시 중랑구 동일로157길 75,37.6089983,127.0736243
서울원묵초등학교,초등학교,서울특별시,중랑구,묵동,서울특별시 중랑구 숙선옹주로 109,37.6178662,127.0864307
서울중랑초등학교,초등학교,서울특별시,중랑구,면목동,서울특별시 중랑구 봉우재로6길 26,37.5893695,127.0757847
서울중목초등학교,초등학교,서울특별시,중랑구,면목동,서울특별시 중랑구 동일로 665,37.5897528,127.0793361
서울면동초등학교,초등학교,서울특별시,중랑구,면목동,서울특별시 중랑구 면목로57길 32,37.5854287,127.0866805
서울중곡초등학교,초등학교,서울특별시,중랑구,면목동,서울특별시 중랑구 면목로23길 20,37.5745386,127.083847
서울인왕초등학교,초등학교,서울특별시,서대문구,홍제동,서울특별시 서대문구 세무서길 33-9,37.5901698,126.9450604
서울안산초등학교,초등학교,서울특별시,서대문구,홍제동,서울특별시 서대문구 통일로 321,37.5790158,126.9515446
서울홍연초등학교,초등학교,서울특별시,서대문구,홍은동,서울특별시 서대문구 백련사길 55,37.5818632,126.9309472
서울창서초등학교,초등학교,서울특별시,서대문구,창천동,서울특별시 서대문구 연세로5나길 30-3,37.5576122,126.9338905
서울연희초등학교,초등학교,서울특별시,서대문구,연희동,서울특별시 서대문구 연희로 136,37.569167,126.9339564
서울북가좌초등학교,초등학교,서울특별시,서대문구,북가좌동,서울특별시 서대문구 거북골로19길 20,37.5774792,126.9074665
서울대신초등학교,초등학교,서울특별시,서대문구,대현동,서울특별시 서대문구 이화여대2길 27,37.5580828,126.947849
서울연가초등학교,초등학교,서울특별시,서대문구,남가좌동,서울특별시 서대문구 증가로12가길 49-50,37.5802016,126.9180758
서울북성초등학교,초등학교,서울특별시,서대문구,북아현동,서울특별시 서대문구 북아현로1나길 22(북아현동),37.5591762,126.9522691
서울홍제초등학교,초등학교,서울특별시,서대문구,홍은동,서울특별시 서대문구 홍은중앙로 13,37.5931186,126.9448285
서울홍은초등학교,초등학교,서울특별시,서대문구,홍제동,서울특별시 서대문구 세검정로 105,37.5974199,126.9496287
서울금화초등학교,초등학교,서울특별시,서대문구,천연동,서울특별시 서대문구 통일로 165,37.5683284,126.9630251
서울미동초등학교,초등학교,서울특별시,서대문구,미근동,서울특별시 서대문구 충정로 52,37.5631109,126.9662737
은혜초등학교,초등학교,서울특별시,은평구,불광동,서울특별시 은평구 통일로78가길 20,37.6177328,126.9275737
예일초등학교,초등학교,서울특별시,은평구,구산동,서울특별시 은평구 연서로 117,37.6101791,126.9151623
선일초등학교,초등학교,서울특별시,은평구,갈현동,서울특별시 은평구 갈현로29길 27,37.6197497,126.9126173
충암초등학교,초등학교,서울특별시,은평구,응암동,서울특별시 은평구 가좌로5길 5,37.5850457,126.9217386
서울대은초등학교,초등학교,서울특별시,은평구,대조동,서울특별시 은평구 통일로69길 12-15,37.6118365,126.9261543
서울증산초등학교,초등학교,서울특별시,은평구,증산동,서울특별시 은평구 증산서길 61,37.5821614,126.9043095
서울응암초등학교,초등학교,서울특별시,은평구,응암동,서울특별시 은평구 가좌로6길 20,37.5882608,126.9217624
서울연은초등학교,초등학교,서울특별시,은평구,응암동,서울특별시 은평구 백련산로2길 35,37.59051113,126.9251778
서울은명초등학교,초등학교,서울특별시,은평구,응암동,서울특별시 은평구 은평로4길 21-9,37.5979615,126.9188333
서울역촌초등학교,초등학교,서울특별시,은평구,역촌동,서울특별시 은평구 은평로3길 25,37.6017363,126.9142657
서울상신초등학교,초등학교,서울특별시,은평구,신사동,서울특별시 은평구 가좌로 361,37.5976771,126.9048
서울서신초등학교,초등학교,서울특별시,은평구,신사동,서울특별시 은평구 은평터널로 150,37.5923285,126.9074837
서울신사초등학교,초등학교,서울특별시,은평구,신사동,서울특별시 은평구 가좌로 275-2,37.5926639,126.9121215
서울수색초등학교,초등학교,서울특별시,은평구,수색동,서울특별시 은평구 수색로16길 21,37.5850571,126.8954934
서울연광초등학교,초등학교,서울특별시,은평구,불광동,서울특별시 은평구 연서로35길 37,37.6238264,126.9240662
서울연천초등학교,초등학교,서울특별시,은평구,불광동,서울특별시 은평구 연서로34길 22,37.6208125,126.9294822
서울영일초등학교,초등학교,서울특별시,구로구,가리봉동,서울특별시 구로구 남부순환로105길 218,37.4853017,126.8840736
서울천왕초등학교,초등학교,서울특별시,구로구,천왕동,서울특별시 구로구 천왕로1길 11,37.4816096,126.8367161
홍익대학교사범대학부속초등학교,초등학교,서울특별시,마포구,성산동,서울특별시 마포구 성미산로 51,37.5601072,126.9134939
서울상암초등학교,초등학교,서울특별시,마포구,상암동,서울특별시 마포구 월드컵북로 353,37.5759905,126.8922651
서울상지초등학교,초등학교,서울특별시,마포구,상암동,서울특별시 마포구 월드컵로42길 30,37.579602,126.8821351
서울성산초등학교,초등학교,서울특별시,마포구,합정동,서울특별시 마포구 양화로3길 94,37.5534098,126.9111567
서울신북초등학교,초등학교,서울특별시,마포구,중동,서울특별시 마포구 월드컵북로38길 26,37.5712061,126.9051164
서울염리초등학교,초등학교,서울특별시,마포구,염리동,서울특별시 마포구 토정로37길 37,37.5424465,126.9461953
서울한서초등학교,초등학교,서울특별시,마포구,염리동,서울특별시 마포구 대흥로24바길 27,37.5535191,126.9495758
서울소의초등학교,초등학교,서울특별시,마포구,아현동,서울특별시 마포구 마포대로24길 42,37.5522666,126.9608455
서울아현초등학교,초등학교,서울특별시,마포구,아현동,서울특별시 마포구 굴레방로 6,37.5555103,126.9559661
서울신석초등학교,초등학교,서울특별시,마포구,신수동,서울특별시 마포구 대흥로 33,37.5442479,126.9378894
서울중동초등학교,초등학교,서울특별시,마포구,성산동,서울특별시 마포구 월드컵북로 152,37.5666231,126.911279
서울성서초등학교,초등학교,서울특별시,마포구,성산동,서울특별시 마포구 성미산로7길 24,37.56059548,126.9109264
서울성원초등학교,초등학교,서울특별시,마포구,성산동,서울특별시 마포구 월드컵로36길 34,37.5672887,126.9052439
서울서교초등학교,초등학교,서울특별시,마포구,서교동,서울특별시 마포구 와우산로23길 20-27,37.5546731,126.9251258
서울하늘초등학교,초등학교,서울특별시,마포구,상암동,서울특별시 마포구 월드컵북로 502-14,37.5855353,126.8806962
서울서강초등학교,초등학교,서울특별시,마포구,상수동,서울특별시 마포구 독막로 113,37.5483494,126.9265893
서울망원초등학교,초등학교,서울특별시,마포구,망원동,서울특별시 마포구 방울내로5길 28,37.5608234,126.9008405
서울동교초등학교,초등학교,서울특별시,마포구,망원동,서울특별시 마포구 월드컵로25길 86,37.5582046,126.9023504
서울마포초등학교,초등학교,서울특별시,마포구,도화동,서울특별시 마포구 도화2길 64,37.5384272,126.9494344
서울용강초등학교,초등학교,서울특별시,마포구,대흥동,서울특별시 마포구 백범로17길 9,37.5486147,126.9440167
서울창천초등학교,초등학교,서울특별시,마포구,노고산동,서울특별시 마포구 백범로1길 56,37.5548865,126.9393201
서울공덕초등학교,초등학교,서울특별시,마포구,공덕동,서울특별시 마포구 만리재옛길 13,37.5457002,126.9537786
명지초등학교,초등학교,서울특별시,서대문구,홍은동,서울특별시 서대문구 명지2길 32-20,37.5835561,126.9280461
추계초등학교,초등학교,서울특별시,서대문구,북아현동,서울특별시 서대문구 북아현로11가길 7,37.5628641,126.9531684
이화여자대학교사범대학부속초등학교,초등학교,서울특별시,서대문구,대신동,서울특별시 서대문구 성산로 512-39,37.5612266,126.9426231
경기초등학교,초등학교,서울특별시,서대문구,충정로2가,서울특별시 서대문구 경기대로9길 10,37.5648923,126.9628701
서울고은초등학교,초등학교,서울특별시,서대문구,홍제동,서울특별시 서대문구 모래내로 441,37.5847702,126.9433678
서울가산초등학교,초등학교,서울특별시,금천구,독산동,서울특별시 금천구 남부순환로 1304-11,37.4781195,126.896405
서울신흥초등학교,초등학교,서울특별시,금천구,시흥동,서울특별시 금천구 독산로36 나 길 21,37.4596867,126.9090436
서울문백초등학교,초등학교,서울특별시,금천구,시흥동,서울특별시 금천구 시흥대로47길 43-1,37.4470903,126.8995074
서울금동초등학교,초등학교,서울특별시,금천구,시흥동,서울특별시 금천구 금하로30길 53,37.4474274,126.9164244
서울영남초등학교,초등학교,서울특별시,금천구,독산동,서울특별시 금천구 문성로 62-15,37.4754537,126.9094339
서울문교초등학교,초등학교,서울특별시,금천구,독산동,서울특별시 금천구 독산로54길 102,37.4667151,126.9089754
서울두산초등학교,초등학교,서울특별시,금천구,독산동,서울특별시 금천구 범안로11길 3,37.4672494,126.8909721
서울오류남초등학교,초등학교,서울특별시,구로구,오류동,서울특별시 구로구 서해안로24길 22,37.4896067,126.8387106
서울오정초등학교,초등학교,서울특별시,구로구,오류동,서울특별시 구로구 경인로2길 10,37.489624,126.8265149
서울오류초등학교,초등학교,서울특별시,구로구,오류동,서울특별시 구로구 경인로19길 39,37.4981498,126.8423578
서울신도림초등학교,초등학교,서울특별시,구로구,신도림동,서울특별시 구로구 신도림로19길 44,37.5123256,126.8833965
서울신미림초등학교,초등학교,서울특별시,구로구,신도림동,서울특별시 구로구 신도림로 26,37.5069274,126.8794934
서울구일초등학교,초등학교,서울특별시,구로구,구로동,서울특별시 구로구 구일로 68,37.4927407,126.8729387
서울구로초등학교,초등학교,서울특별시,구로구,구로동,서울특별시 구로구 구로중앙로27나길 9,37.49746124,126.8865524
서울구로남초등학교,초등학교,서울특별시,구로구,구로동,서울특별시 구로구 디지털로27길 76,37.4848279,126.8905958
서울영서초등학교,초등학교,서울특별시,구로구,구로동,서울특별시 구로구 도림로20길 57,37.4882883,126.8946742
서울신구로초등학교,초등학교,서울특별시,구로구,구로동,서울특별시 구로구 가마산로27길 69,37.499552,126.8893658
서울동구로초등학교,초등학교,서울특별시,구로구,구로동,서울특별시 구로구 구로중앙로14길 43,37.4950456,126.8923106
서울세곡초등학교,초등학교,서울특별시,구로구,고척동,서울특별시 구로구 고척로33길 34,37.5048823,126.849058
서울덕의초등학교,초등학교,서울특별시,구로구,고척동,서울특별시 구로구 고척로 213,37.5062766,126.8567988
서울고척초등학교,초등학교,서울특별시,구로구,고척동,서울특별시 구로구 경서로 31,37.5006668,126.8569791
서울개봉초등학교,초등학교,서울특별시,구로구,개봉동,서울특별시 구로구 개봉로16길 30-11,37.4897274,126.858306
서울매봉초등학교,초등학교,서울특별시,구로구,개봉동,서울특별시 구로구 고척로21길 55,37.5046996,126.844375
서울온수초등학교,초등학교,서울특별시,구로구,온수동,서울특별시 구로구 부일로 893,37.4940717,126.825993
서울개명초등학교,초등학교,서울특별시,구로구,개봉동,서울특별시 구로구 개봉로1다길 16-9,37.4828583,126.8505447
서울개웅초등학교,초등학교,서울특별시,구로구,개봉동,서울특별시 구로구 개봉로11길 98,37.4885697,126.8500524
서울고산초등학교,초등학교,서울특별시,구로구,고척동,서울특별시 구로구 중앙로 6,37.4992418,126.8653696
서울고원초등학교,초등학교,서울특별시,구로구,고척동,서울특별시 구로구 경인로46길 13,37.4974706,126.8659718
서울미래초등학교,초등학교,서울특별시,구로구,구로동,서울특별시 구로구 새말로 73,37.505016,126.8879424
서울대영초등학교,초등학교,서울특별시,영등포구,신길동,서울특별시 영등포구 신길로23길 43,37.5023694,126.9061518
서울영신초등학교,초등학교,서울특별시,영등포구,신길동,서울특별시 영등포구 도신로60길 23,37.509968,126.918009
서울문래초등학교,초등학교,서울특별시,영등포구,문래동3가,서울특별시 영등포구 문래로 104,37.5185396,126.8932886
서울영림초등학교,초등학교,서울특별시,영등포구,대림동,서울특별시 영등포구 시흥대로173길 14,37.4873525,126.9024483
서울신대림초등학교,초등학교,서울특별시,영등포구,대림동,서울특별시 영등포구 대림로8길 25,37.492244,126.9058543
서울신영초등학교,초등학교,서울특별시,영등포구,대림동,서울특별시 영등포구 도신로4길 32,37.5006847,126.8957265
서울도신초등학교,초등학교,서울특별시,영등포구,대림동,서울특별시 영등포구 도림로53길 32-9,37.498728,126.9008446
서울당중초등학교,초등학교,서울특별시,영등포구,양평동3가,서울특별시 영등포구 선유로 131,37.5263783,126.8897251
서울선유초등학교,초등학교,서울특별시,영등포구,양평동3가,서울특별시 영등포구 선유로43가길 14,37.5328162,126.8927942
서울영문초등학교,초등학교,서울특별시,영등포구,문래동6가,서울특별시 영등포구 문래로 56,37.5194948,126.8876868
서울영등포초등학교,초등학교,서울특별시,영등포구,문래동1가,서울특별시 영등포구 경인로 756,37.51294757,126.898215
서울대동초등학교,초등학교,서울특별시,영등포구,대림동,서울특별시 영등포구 대림로21길 6,37.4935997,126.9004978
서울도림초등학교,초등학교,서울특별시,영등포구,신길동,서울특별시 영등포구 가마산로65길 22,37.5079604,126.9070328
서울당서초등학교,초등학교,서울특별시,영등포구,당산동5가,서울특별시 영등포구 당산로 187,37.5319593,126.8997323
서울영동초등학교,초등학교,서울특별시,영등포구,당산동,서울특별시 영등포구 국회대로53길 20,37.52700736,126.9077037
서울영중초등학교,초등학교,서울특별시,영등포구,영등포동7가,서울특별시 영등포구 양산로 185,37.5236591,126.9038138
서울영원초등학교,초등학교,서울특별시,영등포구,영등포동,서울특별시 영등포구 도영로22길 31,37.51071999,126.9021816
서울여의도초등학교,초등학교,서울특별시,영등포구,여의도동,서울특별시 영등포구 여의대방로 439,37.5228903,126.936812
동광초등학교,초등학교,서울특별시,금천구,시흥동,서울특별시 금천구 탑골로10길 45,37.45167193,126.9168874
서울시흥초등학교,초등학교,서울특별시,금천구,시흥동,서울특별시 금천구 독산로23길 26,37.4546436,126.9049575
서울금산초등학교,초등학교,서울특별시,금천구,시흥동,서울특별시 금천구 시흥대로24길 57,37.4418157,126.908303
서울백산초등학교,초등학교,서울특별시,금천구,시흥동,서울특별시 금천구 시흥대로38길 78,37.4466467,126.905247
서울탑동초등학교,초등학교,서울특별시,금천구,시흥동,서울특별시 금천구 탑골로 47-3,37.4524341,126.9149142
서울금천초등학교,초등학교,서울특별시,금천구,시흥동,서울특별시 금천구 탑골로5길 60,37.4546475,126.9126228
서울안천초등학교,초등학교,서울특별시,금천구,독산동,서울특별시 금천구 한내로 69-16,37.4585946,126.8883555
서울독산초등학교,초등학교,서울특별시,금천구,독산동,서울특별시 금천구 시흥대로104길 31,37.4655786,126.9000569
서울문성초등학교,초등학교,서울특별시,금천구,독산동,서울특별시 금천구 시흥대로 460,37.4747768,126.8994644
서울정심초등학교,초등학교,서울특별시,금천구,독산동,서울특별시 금천구 독산로78다길 89,37.4717252,126.9083606
서울신계초등학교,초등학교,서울특별시,노원구,월계동,서울특별시 노원구 초안산로 29,37.6301665,127.052988
한신초등학교,초등학교,서울특별시,도봉구,쌍문동,서울특별시 도봉구 노해로49길 69,37.6529105,127.0318063
동북초등학교,초등학교,서울특별시,도봉구,쌍문동,서울특별시 도봉구 시루봉로 53,37.655351,127.0268289
서울신화초등학교,초등학교,서울특별시,도봉구,창동,서울특별시 도봉구 우이천로 120,37.6326698,127.0408596
서울신창초등학교,초등학교,서울특별시,도봉구,창동,서울특별시 도봉구 덕릉로60길 93,37.6361731,127.0421969
서울창일초등학교,초등학교,서울특별시,도봉구,창동,서울특별시 도봉구 노해로66길 84,37.6471695,127.0476085
서울창원초등학교,초등학교,서울특별시,도봉구,창동,서울특별시 도봉구 해등로 103,37.6525531,127.0405915
서울창동초등학교,초등학교,서울특별시,도봉구,창동,서울특별시 도봉구 해등로16길 81,37.6551201,127.0446861
서울가인초등학교,초등학교,서울특별시,도봉구,창동,서울특별시 도봉구 도봉로136다길 4,37.6599068,127.0431592
서울자운초등학교,초등학교,서울특별시,도봉구,창동,서울특별시 도봉구 마들로13길 166,37.6577174,127.0463946
서울월천초등학교,초등학교,서울특별시,도봉구,창동,서울특별시 도봉구 노해로70길 96,37.6478356,127.0522016
서울백운초등학교,초등학교,서울특별시,도봉구,쌍문동,서울특별시 도봉구 삼양로146길 17,37.6532035,127.0139875
서울쌍문초등학교,초등학교,서울특별시,도봉구,쌍문동,서울특별시 도봉구 우이천로 360,37.6489734,127.024308
서울숭미초등학교,초등학교,서울특별시,도봉구,쌍문동,서울특별시 도봉구 노해로 179,37.6508211,127.0279643
서울창도초등학교,초등학교,서울특별시,도봉구,방학동,서울특별시 도봉구 방학로 32-28,37.663831,127.0490956
서울신방학초등학교,초등학교,서울특별시,도봉구,방학동,서울특별시 도봉구 시루봉로 173,37.6659578,127.0292294
서울방학초등학교,초등학교,서울특별시,도봉구,방학동,서울특별시 도봉구 도당로9길 34,37.6640395,127.0321675
서울도봉초등학교,초등학교,서울특별시,도봉구,도봉동,서울특별시 도봉구 도봉로173길 96,37.6793783,127.038218
서울오봉초등학교,초등학교,서울특별시,도봉구,도봉동,서울특별시 도봉구 시루봉로 285,37.6718842,127.0402882
서울누원초등학교,초등학교,서울특별시,도봉구,도봉동,서울특별시 도봉구 마들로 859-44,37.6869304,127.0490694
서울창림초등학교,초등학교,서울특별시,도봉구,창동,서울특별시 도봉구 덕릉로63길 46,37.6429724,127.0415487
서울창경초등학교,초등학교,서울특별시,도봉구,쌍문동,서울특별시 도봉구 도봉로129길 54,37.6561144,127.0347544
서울신학초등학교,초등학교,서울특별시,도봉구,방학동,서울특별시 도봉구 방학로 247-21,37.6609904,127.0255131
서울초당초등학교,초등학교,서울특별시,도봉구,방학동,서울특별시 도봉구 해등로32길 11,37.6584988,127.0221014
서울윤중초등학교,초등학교,서울특별시,영등포구,여의도동,서울특별시 영등포구 여의나루로2길 14,37.5197467,126.9228068
서울당산초등학교,초등학교,서울특별시,영등포구,양평동4가,서울특별시 영등포구 선유로55길 32,37.5397741,126.8963677
서울대길초등학교,초등학교,서울특별시,영등포구,신길동,서울특별시 영등포구 대방천로 206,37.4977844,126.9132303
서울대방초등학교,초등학교,서울특별시,영등포구,신길동,서울특별시 영등포구 여의대방로35길 14,37.5026701,126.9191481
서울우신초등학교,초등학교,서울특별시,영등포구,신길동,서울특별시 영등포구 신길로 190,37.509564,126.9118923
서울원광초등학교,초등학교,서울특별시,노원구,중계동,서울특별시 노원구 덕릉로76길 18,37.6542123,127.0747887
서울월계초등학교,초등학교,서울특별시,노원구,월계동,서울특별시 노원구 월계로45가길 10,37.6276242,127.0504153
서울선곡초등학교,초등학교,서울특별시,노원구,월계동,서울특별시 노원구 광운로2길 1,37.6184174,127.0582095
서울연지초등학교,초등학교,서울특별시,노원구,월계동,서울특별시 노원구 월계로55길 48,37.6334788,127.0599789
서울한천초등학교,초등학교,서울특별시,노원구,월계동,서울특별시 노원구 마들로 45,37.6204638,127.069013
서울수락초등학교,초등학교,서울특별시,노원구,상계동,서울특별시 노원구 동일로 1745,37.6842939,127.0548343
서울노일초등학교,초등학교,서울특별시,노원구,상계동,서울특별시 노원구 동일로 1625,37.6732392,127.0547828
서울노원초등학교,초등학교,서울특별시,노원구,상계동,서울특별시 노원구 동일로230나길 32,37.6733178,127.0582937
서울동일초등학교,초등학교,서울특별시,노원구,상계동,서울특별시 노원구 한글비석로 566,37.6651664,127.054549
서울상천초등학교,초등학교,서울특별시,노원구,상계동,서울특별시 노원구 덕릉로 443,37.6462819,127.0581071
서울당현초등학교,초등학교,서울특별시,노원구,상계동,서울특별시 노원구 동일로213길 52,37.648634,127.0583817
서울상월초등학교,초등학교,서울특별시,노원구,상계동,서울특별시 노원구 동일로221길 27,37.65865377,127.0569822
서울상곡초등학교,초등학교,서울특별시,노원구,상계동,서울특별시 노원구 노원로38길 34,37.6627218,127.062515
서울계상초등학교,초등학교,서울특별시,노원구,상계동,서울특별시 노원구 한글비석로41가길 24,37.66271,127.0682669
서울상계초등학교,초등학교,서울특별시,노원구,상계동,서울특별시 노원구 상계로9길 39,37.6593115,127.0662421
서울신상계초등학교,초등학교,서울특별시,노원구,상계동,서울특별시 노원구 상계로 267,37.6674743,127.0757904
서울공릉초등학교,초등학교,서울특별시,노원구,공릉동,서울특별시 노원구 동일로173길 12,37.6188016,127.0741878
서울용원초등학교,초등학교,서울특별시,노원구,공릉동,서울특별시 노원구 섬밭로 144,37.6296027,127.0688931
서울공연초등학교,초등학교,서울특별시,노원구,공릉동,서울특별시 노원구 동일로192가길 16,37.6272531,127.0741645
서울태릉초등학교,초등학교,서울특별시,노원구,공릉동,서울특별시 노원구 노원로1길 36,37.6228668,127.0852435
서울태랑초등학교,초등학교,서울특별시,노원구,공릉동,서울특별시 노원구 화랑로51나길 31,37.6259486,127.0905347
서울연촌초등학교,초등학교,서울특별시,노원구,하계동,서울특별시 노원구 공릉로58길 36,37.6350647,127.0728621
서울중계초등학교,초등학교,서울특별시,노원구,중계동,서울특별시 노원구 한글비석로19길 39,37.6577549,127.0730277
서울수암초등학교,초등학교,서울특별시,노원구,중계동,서울특별시 노원구 중계로12길 9,37.6478737,127.0813164
서울불암초등학교,초등학교,서울특별시,노원구,중계동,서울특별시 노원구 중계로 178,37.6510667,127.0806469
서울상원초등학교,초등학교,서울특별시,노원구,상계동,서울특별시 노원구 한글비석로54길 119,37.6671878,127.0598254
서울온곡초등학교,초등학교,서울특별시,노원구,상계동,서울특별시 노원구 한글비석로52길 59,37.6676082,127.0657902
서울덕암초등학교,초등학교,서울특별시,노원구,상계동,서울특별시 노원구 덕릉로112길 68,37.6664888,127.0814678
서울녹천초등학교,초등학교,서울특별시,노원구,월계동,서울특별시 노원구 마들로3길 34,37.6288012,127.0631131
서울광희초등학교,초등학교,서울특별시,중구,신당동,서울특별시 중구 다산로 269,37.5674432,127.0151801
서울봉래초등학교,초등학교,서울특별시,중구,만리동2가,서울특별시 중구 손기정로 73,37.5561784,126.9637888
서울덕수초등학교,초등학교,서울특별시,중구,정동,서울특별시 중구 덕수궁길 140,37.5685606,126.9744424
서울남산초등학교,초등학교,서울특별시,중구,남산동2가,서울특별시 중구 퇴계로22길 17,37.5600487,126.9867556
상명대학교사범대학부속초등학교,초등학교,서울특별시,종로구,홍지동,서울특별시 종로구 홍지문2길 1,37.6005802,126.956708
운현초등학교,초등학교,서울특별시,종로구,운니동,서울특별시 종로구 삼일대로 460,37.5758393,126.987819
서울효제초등학교,초등학교,서울특별시,종로구,효제동,서울특별시 종로구 대학로 12,37.5728828,127.0032572
서울창신초등학교,초등학교,서울특별시,종로구,창신동,서울특별시 종로구 지봉로 73,37.5760326,127.0143822
서울세검정초등학교,초등학교,서울특별시,종로구,신영동,서울특별시 종로구 세검정로9길 1,37.6033878,126.9608999
서울독립문초등학교,초등학교,서울특별시,종로구,무악동,서울특별시 종로구 통일로12길 23,37.5741366,126.9602466
서울명신초등학교,초등학교,서울특별시,종로구,창신동,서울특별시 종로구 낙산길 250,37.5812388,127.013846
서울혜화초등학교,초등학교,서울특별시,종로구,혜화동,서울특별시 종로구 혜화로 32,37.5888137,127.0000249
서울교동초등학교,초등학교,서울특별시,종로구,경운동,서울특별시 종로구 삼일대로 446,37.57500477,126.9881499
서울재동초등학교,초등학교,서울특별시,종로구,가회동,서울특별시 종로구 북촌로4길 7,37.5799248,126.9855602
서울매동초등학교,초등학교,서울특별시,종로구,필운동,서울특별시 종로구 사직로9길 19,37.5772345,126.9668504
서울청운초등학교,초등학교,서울특별시,종로구,청운동,서울특별시 종로구 자하문로 105,37.5859741,126.9691707
서울대학교사범대학부설초등학교,초등학교,서울특별시,종로구,동숭동,서울특별시 종로구 대학로 64,37.5770935,127.0038022
상명초등학교,초등학교,서울특별시,노원구,중계동,서울특별시 노원구 덕릉로 541,37.6484702,127.0675498
화랑초등학교,초등학교,서울특별시,노원구,공릉동,서울특별시 노원구 화랑로 621,37.6292222,127.0905514
태강삼육초등학교,초등학교,서울특별시,노원구,공릉동,서울특별시 노원구 화랑로 815,37.6431424,127.1062512
청원초등학교,초등학교,서울특별시,노원구,상계동,서울특별시 노원구 한글비석로 506,37.6660284,127.0620129
서울상수초등학교,초등학교,서울특별시,노원구,상계동,서울특별시 노원구 동일로216길 66,37.6515858,127.0647353
서울상경초등학교,초등학교,서울특별시,노원구,상계동,서울특별시 노원구 수락산로 237,37.6702084,127.0513209
서울중평초등학교,초등학교,서울특별시,노원구,하계동,서울특별시 노원구 섬밭로 241,37.6372796,127.0640898
서울중현초등학교,초등학교,서울특별시,노원구,하계동,서울특별시 노원구 섬밭로 181,37.6324175,127.0662355
서울용동초등학교,초등학교,서울특별시,노원구,중계동,서울특별시 노원구 한글비석로1길 81-11,37.6416784,127.069476
서울청계초등학교,초등학교,서울특별시,노원구,중계동,서울특별시 노원구 공릉로 431,37.6448867,127.066442
서울중원초등학교,초등학교,서울특별시,노원구,중계동,서울특별시 노원구 섬밭로 316,37.6436702,127.0628262
서울을지초등학교,초등학교,서울특별시,노원구,중계동,서울특별시 노원구 중계로 239,37.6503519,127.0731299
서울문정초등학교,초등학교,서울특별시,송파구,문정동,서울특별시 송파구 문정로5길 20,37.4884717,127.1289195
서울문덕초등학교,초등학교,서울특별시,송파구,문정동,서울특별시 송파구 송이로34길 60,37.4852891,127.1275957
서울중대초등학교,초등학교,서울특별시,송파구,송파동,서울특별시 송파구 송파대로36길 8,37.4994062,127.1135642
서울평화초등학교,초등학교,서울특별시,송파구,가락동,서울특별시 송파구 송파대로26길 22,37.4914378,127.1228091
서울가락초등학교,초등학교,서울특별시,송파구,가락동,서울특별시 송파구 송파대로37길 45,37.5001667,127.1076425
서울방이초등학교,초등학교,서울특별시,송파구,방이동,서울특별시 송파구 위례성대로10길 4,37.5130915,127.1205626
신광초등학교,초등학교,서울특별시,용산구,청파동3가,서울특별시 용산구 청파로 263,37.5431703,126.9699957
서울신용산초등학교,초등학교,서울특별시,용산구,이촌동,서울특별시 용산구 이촌로 255,37.520194,126.9756071
서울남정초등학교,초등학교,서울특별시,용산구,원효로2가,서울특별시 용산구 원효로64길 17-10,37.5360588,126.9649864
서울삼광초등학교,초등학교,서울특별시,용산구,후암동,서울특별시 용산구 두텁바위로1나길 19,37.5473202,126.9768231
서울금양초등학교,초등학교,서울특별시,용산구,효창동,서울특별시 용산구 효창원로 137,37.5406238,126.9613359
서울한남초등학교,초등학교,서울특별시,용산구,한남동,서울특별시 용산구 한남대로 112,37.5392493,127.0051252
서울한강초등학교,초등학교,서울특별시,용산구,한강로3가,서울특별시 용산구 한강대로14길 9,37.5252266,126.9651087
서울보광초등학교,초등학교,서울특별시,용산구,이태원동,서울특별시 용산구 우사단로 20,37.5324666,126.9963946
서울용암초등학교,초등학교,서울특별시,용산구,용산동2가,서울특별시 용산구 녹사평대로60길 39,37.5448696,126.9891625
서울서빙고초등학교,초등학교,서울특별시,용산구,서빙고동,서울특별시 용산구 서빙고로51길 14,37.5214444,126.9921325
서울이태원초등학교,초등학교,서울특별시,용산구,이태원동,서울특별시 용산구 녹사평대로40길 19,37.5360669,126.987859
서울후암초등학교,초등학교,서울특별시,용산구,후암동,서울특별시 용산구 두텁바위로 140,37.5509911,126.9823336
서울청파초등학교,초등학교,서울특별시,용산구,청파동2가,서울특별시 용산구 효창원로 228,37.5475147,126.9640802
서울원효초등학교,초등학교,서울특별시,용산구,산천동,서울특별시 용산구 효창원로13길 38,37.5362134,126.9516606
서울용산초등학교,초등학교,서울특별시,용산구,한강로2가,서울특별시 용산구 한강대로57길 33,37.53561416,126.9725514
동산초등학교,초등학교,서울특별시,중구,신당동,서울특별시 중구 매봉18길 109,37.5562058,127.0167272
숭의초등학교,초등학교,서울특별시,중구,예장동,서울특별시 중구 소파로2길 10,37.5567763,126.9875325
리라초등학교,초등학교,서울특별시,중구,예장동,서울특별시 중구 소파로2길 7,37.5579702,126.9885837
서울충무초등학교,초등학교,서울특별시,중구,장충동2가,서울특별시 중구 퇴계로50길 13,37.5619668,127.001346
서울청구초등학교,초등학교,서울특별시,중구,신당동,서울특별시 중구 다산로 170,37.5582656,127.0141941
서울흥인초등학교,초등학교,서울특별시,중구,신당동,서울특별시 중구 청구로6길 11,37.5608307,127.0145429
서울신당초등학교,초등학교,서울특별시,중구,신당동,서울특별시 중구 난계로 141,37.563715,127.0237242
서울장충초등학교,초등학교,서울특별시,중구,신당동,서울특별시 중구 청구로17길 40,37.5594818,127.0114141
서울풍성초등학교,초등학교,서울특별시,송파구,풍납동,서울특별시 송파구 강동대로2길 13,37.5261388,127.1137028
서울토성초등학교,초등학교,서울특별시,송파구,풍납동,서울특별시 송파구 풍성로20길 44,37.5316475,127.1155695
서울풍납초등학교,초등학교,서울특별시,송파구,풍납동,서울특별시 송파구 풍성로 43,37.5348603,127.1174625
서울잠전초등학교,초등학교,서울특별시,송파구,잠실동,서울특별시 송파구 올림픽로12길 51,37.5071595,127.0842067
서울개롱초등학교,초등학교,서울특별시,송파구,오금동,서울특별시 송파구 문정로 211,37.4973677,127.1398426
서울거여초등학교,초등학교,서울특별시,송파구,오금동,서울특별시 송파구 마천로25길 18,37.5047528,127.1410936
서울오금초등학교,초등학교,서울특별시,송파구,오금동,서울특별시 송파구 위례성대로22길 11,37.5091557,127.1317971
서울송파초등학교,초등학교,서울특별시,송파구,송파동,서울특별시 송파구 백제고분로 400,37.5070869,127.1108763
서울석촌초등학교,초등학교,서울특별시,송파구,석촌동,서울특별시 송파구 가락로11길 26,37.5027584,127.1048724
서울삼전초등학교,초등학교,서울특별시,송파구,삼전동,서울특별시 송파구 백제고분로28길 19,37.5015071,127.0927452
서울방산초등학교,초등학교,서울특별시,송파구,방이동,서울특별시 송파구 오금로27길 42,37.5096455,127.1211143
서울세륜초등학교,초등학교,서울특별시,송파구,방이동,서울특별시 송파구 양재대로 1264,37.5183539,127.1341356
서울오륜초등학교,초등학교,서울특별시,송파구,방이동,서울특별시 송파구 양재대로 1196,37.5122054,127.1347813
서울마천초등학교,초등학교,서울특별시,송파구,마천동,서울특별시 송파구 마천로61다길 24,37.4954974,127.1524746
서울남천초등학교,초등학교,서울특별시,송파구,마천동,서울특별시 송파구 성내천로 207,37.5011739,127.1505715
서울거원초등학교,초등학교,서울특별시,송파구,거여동,서울특별시 송파구 양산로2길 26,37.4878297,127.1447579
서울영풍초등학교,초등학교,서울특별시,송파구,거여동,서울특별시 송파구 오금로57길 15,37.4962643,127.1429536
서울가동초등학교,초등학교,서울특별시,송파구,가락동,서울특별시 송파구 중대로20길 47,37.4973198,127.130219
서울가주초등학교,초등학교,서울특별시,송파구,가락동,서울특별시 송파구 오금로40길 37,37.4965216,127.1293812
서울신가초등학교,초등학교,서울특별시,송파구,가락동,서울특별시 송파구 송이로 75,37.5003769,127.1198579
서울잠현초등학교,초등학교,서울특별시,송파구,신천동,서울특별시 송파구 올림픽로37길 109,37.52258569,127.1047786
서울잠실초등학교,초등학교,서울특별시,송파구,신천동,서울특별시 송파구 올림픽로35길 20,37.5201075,127.1113101
서울잠동초등학교,초등학교,서울특별시,송파구,신천동,서울특별시 송파구 올림픽로35길 122,37.5179644,127.1001543
서울송전초등학교,초등학교,서울특별시,송파구,잠실동,서울특별시 송파구 석촌호수로 159,37.5084993,127.0949748
서울잠신초등학교,초등학교,서울특별시,송파구,잠실동,서울특별시 송파구 잠실로 32,37.5141141,127.0879195
서울잠일초등학교,초등학교,서울특별시,송파구,잠실동,서울특별시 송파구 올림픽로 95,37.51473995,127.0816351
서울문현초등학교,초등학교,서울특별시,송파구,장지동,서울특별시 송파구 충민로 137,37.4827534,127.1302223
서울가원초등학교,초등학교,서울특별시,송파구,문정동,서울특별시 송파구 중대로4길 8,37.4893692,127.1110221
서울신은초등학교,초등학교,서울특별시,양천구,신정동,서울특별시 양천구 신정이펜2로 30,37.5139921,126.8320115
서울신암초등학교,초등학교,서울특별시,강동구,암사동,서울특별시 강동구 올림픽로93길 33-16,37.5497646,127.1243019
서울선사초등학교,초등학교,서울특별시,강동구,암사동,서울특별시 강동구 올림픽로 837,37.5558399,127.1284369
서울강동초등학교,초등학교,서울특별시,강동구,천호동,서울특별시 강동구 상암로14길 77,37.5461063,127.1304605
서울천호초등학교,초등학교,서울특별시,강동구,천호동,서울특별시 강동구 구천면로 310-11,37.5473577,127.1364524
서울천일초등학교,초등학교,서울특별시,강동구,천호동,서울특별시 강동구 구천면로 266,37.5441771,127.1333855
서울명일초등학교,초등학교,서울특별시,강동구,암사동,서울특별시 강동구 고덕로38길 8,37.55454236,127.1425695
서울성내초등학교,초등학교,서울특별시,강동구,성내동,서울특별시 강동구 성내로3길 19,37.5314221,127.1224654
서울성일초등학교,초등학교,서울특별시,강동구,성내동,서울특별시 강동구 성내로15길 33,37.5291153,127.1283576
서울강명초등학교,초등학교,서울특별시,강동구,상일동,서울특별시 강동구 상일로 74-1,37.5548237,127.1733624
서울상일초등학교,초등학교,서울특별시,강동구,상일동,서울특별시 강동구 천호대로 1477,37.5471408,127.1723329
서울고일초등학교,초등학교,서울특별시,강동구,상일동,서울특별시 강동구 구천면로93길 20,37.5520581,127.1690875
서울대명초등학교,초등학교,서울특별시,강동구,명일동,서울특별시 강동구 상암로 271,37.5476037,127.1528696
서울명원초등학교,초등학교,서울특별시,강동구,명일동,서울특별시 강동구 명일로 364,37.5512241,127.1507304
서울한산초등학교,초등학교,서울특별시,강동구,둔촌동,서울특별시 강동구 풍성로 261,37.5283976,127.1413645
서울천동초등학교,초등학교,서울특별시,강동구,길동,서울특별시 강동구 성안로 200,37.5405852,127.1375686
서울길동초등학교,초등학교,서울특별시,강동구,길동,서울특별시 강동구 양재대로116길 69,37.5385062,127.1449741
서울신명초등학교,초등학교,서울특별시,강동구,길동,서울특별시 강동구 명일로24길 33,37.54094252,127.149989
서울명덕초등학교,초등학교,서울특별시,강동구,고덕동,서울특별시 강동구 양재대로156길 11,37.5568963,127.1460078
서울강덕초등학교,초등학교,서울특별시,강동구,고덕동,서울특별시 강동구 동남로82길 94-54,37.5589366,127.1607703
서울고덕초등학교,초등학교,서울특별시,강동구,고덕동,서울특별시 강동구 아리수로82길 42,37.5610786,127.1663766
서울강일초등학교,초등학교,서울특별시,강동구,강일동,서울특별시 강동구 아리수로98길 24,37.5649609,127.1771117
서울묘곡초등학교,초등학교,서울특별시,강동구,고덕동,서울특별시 강동구 동남로79길 46,37.5584546,127.1531803
서울고명초등학교,초등학교,서울특별시,강동구,명일동,서울특별시 강동구 고덕로46길 53,37.5530361,127.14682
서울선린초등학교,초등학교,서울특별시,강동구,둔촌동,서울특별시 강동구 진황도로61길 29,37.529447,127.1460489
서울신천초등학교,초등학교,서울특별시,송파구,잠실동,서울특별시 송파구 올림픽로 215,37.5137862,127.0953838
서울버들초등학교,초등학교,서울특별시,송파구,잠실동,서울특별시 송파구 석촌호수로 81,37.5103926,127.0890677
서울아주초등학교,초등학교,서울특별시,송파구,잠실동,서울특별시 송파구 올림픽로4길 59,37.50582752,127.075764
서울영도초등학교,초등학교,서울특별시,양천구,목동,서울특별시 양천구 목동중앙로 70,37.5357019,126.8716258
서울월촌초등학교,초등학교,서울특별시,양천구,목동,서울특별시 양천구 목동중앙로 132,37.5402367,126.8764371
서울양동초등학교,초등학교,서울특별시,양천구,신정동,서울특별시 양천구 오목로23길 24,37.526006,126.8511587
서울장수초등학교,초등학교,서울특별시,양천구,신정동,서울특별시 양천구 신정로13가길 30,37.512868,126.8450848
서울지향초등학교,초등학교,서울특별시,양천구,신정동,서울특별시 양천구 신정로11길 74,37.5127825,126.8371342
서울신목초등학교,초등학교,서울특별시,양천구,신정동,서울특별시 양천구 신목로5길 11-6,37.5169159,126.8726846
서울목동초등학교,초등학교,서울특별시,양천구,신정동,서울특별시 양천구 목동동로12길 12,37.5224822,126.8721597
서울강월초등학교,초등학교,서울특별시,양천구,신월동,서울특별시 양천구 신월로 97,37.5159595,126.8341623
서울신남초등학교,초등학교,서울특별시,양천구,신월동,서울특별시 양천구 절골8길 33,37.5162714,126.844269
서울양강초등학교,초등학교,서울특별시,양천구,신월동,서울특별시 양천구 오목로 101,37.5240784,126.8479995
서울신강초등학교,초등학교,서울특별시,양천구,신월동,서울특별시 양천구 중앙로55길 72,37.5259562,126.8416536
서울강서초등학교,초등학교,서울특별시,양천구,신월동,서울특별시 양천구 오목로 31,37.5223088,126.8409133
서울신원초등학교,초등학교,서울특별시,양천구,신월동,서울특별시 양천구 남부순환로58길 32,37.5295028,126.8299687
서울양원초등학교,초등학교,서울특별시,양천구,신월동,서울특별시 양천구 화곡로 16,37.5384029,126.8233181
서울정목초등학교,초등학교,서울특별시,양천구,목동,서울특별시 양천구 목동중앙로3길 30-10,37.5370581,126.8703211
서울양화초등학교,초등학교,서울특별시,양천구,목동,서울특별시 양천구 목동중앙북로16길 57,37.5437143,126.8744087
서울강신초등학교,초등학교,서울특별시,양천구,신월동,서울특별시 양천구 월정로 280,37.5428793,126.8295869
서울갈산초등학교,초등학교,서울특별시,양천구,신정동,서울특별시 양천구 목동로 31,37.5118348,126.8699978
서울양목초등학교,초등학교,서울특별시,양천구,신정동,서울특별시 양천구 목동로11길 30,37.5236502,126.8616964
서울남명초등학교,초등학교,서울특별시,양천구,신정동,서울특별시 양천구 중앙로23길 3,37.5153939,126.8538873
서울신기초등학교,초등학교,서울특별시,양천구,신정동,서울특별시 양천구 신정로 292,37.5110164,126.8540515
서울양명초등학교,초등학교,서울특별시,양천구,신정동,서울특별시 양천구 중앙로 204,37.51637504,126.8566344
서울신서초등학교,초등학교,서울특별시,양천구,신정동,서울특별시 양천구 목동서로10길 35,37.5205957,126.8625771
서울은정초등학교,초등학교,서울특별시,양천구,신정동,서울특별시 양천구 목동남로 85,37.5108159,126.8669853
서울계남초등학교,초등학교,서울특별시,양천구,신정동,서울특별시 양천구 목동동로2길 54,37.5100874,126.8599994
서울목운초등학교,초등학교,서울특별시,양천구,목동,서울특별시 양천구 목동동로 235,37.5269904,126.8730106
서울서정초등학교,초등학교,서울특별시,양천구,목동,서울특별시 양천구 목동로8길 19,37.523899,126.8671743
서울경인초등학교,초등학교,서울특별시,양천구,목동,서울특별시 양천구 안양천로 1009,37.5328933,126.8863349
서울목원초등학교,초등학교,서울특별시,양천구,목동,서울특별시 양천구 목동중앙로 204,37.5427277,126.8824793
서울신월초등학교,초등학교,서울특별시,강서구,화곡동,서울특별시 강서구 강서로31길 48,37.5401017,126.839099
서울월정초등학교,초등학교,서울특별시,강서구,화곡동,서울특별시 강서구 월정로 176,37.5347268,126.8360595
서울화곡초등학교,초등학교,서울특별시,강서구,화곡동,서울특별시 강서구 초록마을로 28,37.5432456,126.8459511
서울염동초등학교,초등학교,서울특별시,강서구,염창동,서울특별시 강서구 양천로73길 17,37.5521222,126.872373
서울방화초등학교,초등학교,서울특별시,강서구,방화동,서울특별시 강서구 양천로6길 92,37.56870364,126.8074988
서울개화초등학교,초등학교,서울특별시,강서구,방화동,서울특별시 강서구 양천로 11,37.5736852,126.8046641
서울송화초등학교,초등학교,서울특별시,강서구,마곡동,서울특별시 강서구 방화대로34길 2,37.5682741,126.8174653
서울백석초등학교,초등학교,서울특별시,강서구,등촌동,서울특별시 강서구 공항대로 491,37.5534229,126.8621938
서울등촌초등학교,초등학교,서울특별시,강서구,등촌동,서울특별시 강서구 등촌로39길 71,37.5474955,126.8577618
서울내발산초등학교,초등학교,서울특별시,강서구,내발산동,서울특별시 강서구 강서로46길 23,37.551248,126.8377005
서울송정초등학교,초등학교,서울특별시,강서구,공항동,서울특별시 강서구 공항대로3길 18,37.5627589,126.8110229
서울가양초등학교,초등학교,서울특별시,강서구,가양동,서울특별시 강서구 허준로 186,37.5617004,126.8586437
서울탑산초등학교,초등학교,서울특별시,강서구,가양동,서울특별시 강서구 허준로 109,37.5666739,126.8521896
서울양천초등학교,초등학교,서울특별시,강서구,가양동,서울특별시 강서구 양천로 329,37.5701684,126.8395913
서울발산초등학교,초등학교,서울특별시,강서구,내발산동,서울특별시 강서구 강서로45길 113,37.5503201,126.8310383
서울가곡초등학교,초등학교,서울특별시,강서구,마곡동,서울특별시 강서구 공항대로36길 74,37.5557076,126.8361018
서울정곡초등학교,초등학교,서울특별시,강서구,방화동,서울특별시 강서구 방화대로50길 22,37.5769549,126.8189082
서울삼정초등학교,초등학교,서울특별시,강서구,방화동,서울특별시 강서구 금낭화로 222,37.5803891,126.8108471
서울치현초등학교,초등학교,서울특별시,강서구,방화동,서울특별시 강서구 방화대로47길 43,37.5755781,126.8146538
서울염강초등학교,초등학교,서울특별시,강서구,가양동,서울특별시 강서구 허준로 221-22,37.5611473,126.8644193
서울염창초등학교,초등학교,서울특별시,강서구,염창동,서울특별시 강서구 양천로 646-28,37.5529516,126.8677461
서울염경초등학교,초등학교,서울특별시,강서구,염창동,서울특별시 강서구 양천로69길 49,37.5548065,126.8712574
서울등양초등학교,초등학교,서울특별시,강서구,등촌동,서울특별시 강서구 강서로56나길 140,37.5648029,126.844666
서울등마초등학교,초등학교,서울특별시,강서구,등촌동,서울특별시 강서구 등촌로35길 12,37.5420258,126.8616338
서울신곡초등학교,초등학교,서울특별시,강서구,화곡동,서울특별시 강서구 등촌로13자길 42-14,37.5390734,126.8556963
서울신정초등학교,초등학교,서울특별시,강서구,화곡동,서울특별시 강서구 곰달래로31가길 27,37.5327438,126.8524559
서울우장초등학교,초등학교,서울특별시,강서구,화곡동,서울특별시 강서구 화곡로 263,37.5492011,126.8460773
서울화일초등학교,초등학교,서울특별시,강서구,화곡동,서울특별시 강서구 까치산로10길 70,37.5403602,126.8474076
계성초등학교,초등학교,서울특별시,서초구,반포동,서울특별시 서초구 신반포로19길 23,37.5044669,126.9964732
서울신동초등학교,초등학교,서울특별시,서초구,잠원동,서울특별시 서초구 나루터로 15,37.5170464,127.0116439
서울우암초등학교,초등학교,서울특별시,서초구,우면동,서울특별시 서초구 바우뫼로7길 38,37.4721905,127.0239065
서울양재초등학교,초등학교,서울특별시,서초구,양재동,서울특별시 서초구 바우뫼로18길 14,37.473765,127.0316178
서울원명초등학교,초등학교,서울특별시,서초구,서초동,서울특별시 서초구 고무래로 90-6,37.500647,127.0165694
서울서일초등학교,초등학교,서울특별시,서초구,서초동,서울특별시 서초구 남부순환로339길 38,37.4851056,127.0222041
서울서이초등학교,초등학교,서울특별시,서초구,서초동,서울특별시 서초구 서운로 35,37.4913032,127.0259479
서울서초초등학교,초등학교,서울특별시,서초구,서초동,서울특별시 서초구 서운로 178,37.499331,127.0242296
서울방현초등학교,초등학교,서울특별시,서초구,방배동,서울특별시 서초구 효령로4길 58,37.4763718,126.99015
서울방배초등학교,초등학교,서울특별시,서초구,방배동,서울특별시 서초구 방배중앙로13길 26,37.4871653,126.9874257
서울서래초등학교,초등학교,서울특별시,서초구,방배동,서울특별시 서초구 방배로 260,37.4963529,126.9898009
서울이수초등학교,초등학교,서울특별시,서초구,방배동,서울특별시 서초구 방배천로4길 23,37.4783196,126.984565
서울방일초등학교,초등학교,서울특별시,서초구,방배동,서울특별시 서초구 방배로18길 52,37.4853656,126.9982024
서울반포초등학교,초등학교,서울특별시,서초구,반포동,서울특별시 서초구 신반포로 55-4,37.5027416,126.9910009
서울매헌초등학교,초등학교,서울특별시,서초구,양재동,서울특별시 서초구 언남길 8,37.471067,127.0420698
서울반원초등학교,초등학교,서울특별시,서초구,잠원동,서울특별시 서초구 잠원로3길 28,37.5102082,127.0039023
서울잠원초등학교,초등학교,서울특별시,서초구,반포동,서울특별시 서초구 신반포로16길 15-25,37.50185855,126.9980966
서울원촌초등학교,초등학교,서울특별시,서초구,반포동,서울특별시 서초구 사평대로45길 26,37.5061857,127.0124612
서울서원초등학교,초등학교,서울특별시,서초구,반포동,서울특별시 서초구 고무래로 63,37.5027958,127.0151377
서울신중초등학교,초등학교,서울특별시,서초구,서초동,서울특별시 서초구 남부순환로317길 15,37.4801745,127.0098006
서울교육대학교부설초등학교,초등학교,서울특별시,서초구,서초동,서울특별시 서초구 서초중앙로 96,37.4899286,127.0158653
서울우면초등학교,초등학교,서울특별시,서초구,우면동,서울특별시 서초구 태봉로 59,37.46470939,127.0237894
유석초등학교,초등학교,서울특별시,강서구,등촌동,서울특별시 강서구 화곡로69길 9,37.5608059,126.8537249
서울수명초등학교,초등학교,서울특별시,강서구,내발산동,서울특별시 강서구 수명로1길 84,37.55277438,126.8238445
서울등원초등학교,초등학교,서울특별시,강서구,등촌동,서울특별시 강서구 화곡로65길 90,37.5603228,126.8500834
서울등현초등학교,초등학교,서울특별시,강서구,등촌동,서울특별시 강서구 화곡로65길 124,37.5613697,126.8480367
서울등명초등학교,초등학교,서울특별시,강서구,등촌동,서울특별시 강서구 강서로56나길 34,37.5606241,126.8425361
서울등서초등학교,초등학교,서울특별시,강서구,화곡동,서울특별시 강서구 화곡로58길 86,37.5518272,126.8549719
서울포이초등학교,초등학교,서울특별시,강남구,개포동,서울특별시 강남구 개포로22길 87,37.4756209,127.0520896
서울청담초등학교,초등학교,서울특별시,강남구,청담동,서울특별시 강남구 압구정로71길 9,37.5279762,127.0452701
서울언북초등학교,초등학교,서울특별시,강남구,청담동,서울특별시 강남구 삼성로135길 42,37.5199603,127.0451
서울일원초등학교,초등학교,서울특별시,강남구,일원동,서울특별시 강남구 영동대로4길 20,37.4898353,127.0762907
서울영희초등학교,초등학교,서울특별시,강남구,일원동,서울특별시 강남구 일원로 21,37.4922499,127.0808759
서울대청초등학교,초등학교,서울특별시,강남구,일원동,서울특별시 강남구 양재대로55길 28,37.4931172,127.0875746
서울역삼초등학교,초등학교,서울특별시,강남구,역삼동,서울특별시 강남구 강남대로66길 21,37.492918,127.0328543
서울도성초등학교,초등학교,서울특별시,강남구,역삼동,서울특별시 강남구 역삼로 313,37.5013049,127.0489326
서울압구정초등학교,초등학교,서울특별시,강남구,압구정동,서울특별시 강남구 압구정로39길 29,37.5316708,127.031165
서울신구초등학교,초등학교,서울특별시,강남구,신사동,서울특별시 강남구 압구정로18길 28,37.5233603,127.0240264
서울왕북초등학교,초등학교,서울특별시,강남구,수서동,서울특별시 강남구 광평로31길 74,37.4864123,127.0860392
서울삼릉초등학교,초등학교,서울특별시,강남구,삼성동,서울특별시 강남구 봉은사로63길 22,37.5131023,127.0469142
서울대현초등학교,초등학교,서울특별시,강남구,대치동,서울특별시 강남구 역삼로98길 16,37.5038985,127.0636435
서울대곡초등학교,초등학교,서울특별시,강남구,대치동,서울특별시 강남구 남부순환로 3022,37.4943975,127.0646926
서울학동초등학교,초등학교,서울특별시,강남구,논현동,서울특별시 강남구 선릉로115길 42,37.5125348,127.0397082
서울논현초등학교,초등학교,서울특별시,강남구,논현동,서울특별시 강남구 강남대로120길 33,37.5081699,127.0260317
서울개일초등학교,초등학교,서울특별시,강남구,개포동,서울특별시 강남구 개포로 401,37.4861543,127.057776
서울대도초등학교,초등학교,서울특별시,강남구,도곡동,서울특별시 강남구 선릉로 209,37.4928283,127.0531484
서울도곡초등학교,초등학교,서울특별시,강남구,대치동,서울특별시 강남구 선릉로64길 33,37.4993211,127.054928
서울대치초등학교,초등학교,서울특별시,강남구,대치동,서울특별시 강남구 양재천로 363,37.4909822,127.0624593
서울언주초등학교,초등학교,서울특별시,강남구,도곡동,서울특별시 강남구 남부순환로363길 19,37.4862841,127.0367809
서울구룡초등학교,초등학교,서울특별시,강남구,개포동,서울특별시 강남구 개포로 263,37.4807232,127.051891
서울양전초등학교,초등학교,서울특별시,강남구,개포동,서울특별시 강남구 개포로 513,37.4903657,127.0694778
서울대진초등학교,초등학교,서울특별시,강남구,개포동,서울특별시 강남구 개포로109길 74,37.4970272,127.0779765
서울대모초등학교,초등학교,서울특별시,강남구,일원동,서울특별시 강남구 광평로20길 27,37.4814341,127.0865193
서울수서초등학교,초등학교,서울특별시,강남구,수서동,서울특별시 강남구 광평로51길 46,37.4909843,127.1015496
서울대왕초등학교,초등학교,서울특별시,강남구,세곡동,서울특별시 강남구 헌릉로618길 8,37.4641998,127.1056184
서울봉은초등학교,초등학교,서울특별시,강남구,삼성동,서울특별시 강남구 학동로 610,37.5201521,127.0609811
서울미성초등학교,초등학교,서울특별시,관악구,신림동,서울특별시 관악구 문성로 79,37.4779314,126.9126806
서울삼성초등학교,초등학교,서울특별시,관악구,신림동,서울특별시 관악구 대학7길 52,37.4678163,126.9409762
서울난곡초등학교,초등학교,서울특별시,관악구,신림동,서울특별시 관악구 난곡로35길 102,37.4692405,126.9166641
서울조원초등학교,초등학교,서울특별시,관악구,신림동,서울특별시 관악구 조원로 67,37.4841778,126.9094507
서울신림초등학교,초등학교,서울특별시,관악구,신림동,서울특별시 관악구 문성로28길 31,37.4771503,126.9272999
서울신우초등학교,초등학교,서울특별시,관악구,신림동,서울특별시 관악구 호암로 498,37.4626215,126.9323353
서울남부초등학교,초등학교,서울특별시,관악구,신림동,서울특별시 관악구 남부순환로163길 14,37.4850413,126.9221169
서울원신초등학교,초등학교,서울특별시,관악구,신림동,서울특별시 관악구 광신길 177,37.467048,126.9274239
중앙대학교사범대학부속초등학교,초등학교,서울특별시,동작구,흑석동,서울특별시 동작구 서달로 135,37.5053803,126.960245
서울흑석초등학교,초등학교,서울특별시,동작구,흑석동,서울특별시 동작구 현충로 87,37.5084802,126.9650367
서울문창초등학교,초등학교,서울특별시,동작구,신대방동,서울특별시 동작구 신대방2길 14,37.48898312,126.9148425
서울보라매초등학교,초등학교,서울특별시,동작구,신대방동,서울특별시 동작구 여의대방로16길 30,37.4957958,126.916097
서울상도초등학교,초등학교,서울특별시,동작구,상도동,서울특별시 동작구 성대로21길 62,37.4997141,126.9373558
서울남사초등학교,초등학교,서울특별시,동작구,사당동,서울특별시 동작구 동작대로13길 22,37.4822359,126.9785565
서울남성초등학교,초등학교,서울특별시,동작구,사당동,서울특별시 동작구 사당로23길 57-14,37.4844416,126.9758314
서울영본초등학교,초등학교,서울특별시,동작구,본동,서울특별시 동작구 만양로12가길 69,37.5105022,126.9485347
서울대림초등학교,초등학교,서울특별시,동작구,대방동,서울특별시 동작구 대방동1길 22,37.5005994,126.9253563
서울신길초등학교,초등학교,서울특별시,동작구,대방동,서울특별시 동작구 알마타길 16,37.5102562,126.9265808
서울영화초등학교,초등학교,서울특별시,동작구,대방동,서울특별시 동작구 등용로8길 3,37.50890703,126.9329751
서울신남성초등학교,초등학교,서울특별시,동작구,사당동,서울특별시 동작구 사당로 146,37.4886163,126.9651691
서울행림초등학교,초등학교,서울특별시,동작구,사당동,서울특별시 동작구 솔밭로 47,37.48280607,126.9649638
서울삼일초등학교,초등학교,서울특별시,동작구,사당동,서울특별시 동작구 사당로23나길 27,37.4882355,126.9751016
서울동작초등학교,초등학교,서울특별시,동작구,사당동,서울특별시 동작구 동작대로29길 214,37.4942206,126.9770792
서울은로초등학교,초등학교,서울특별시,동작구,흑석동,서울특별시 동작구 서달로 115,37.5031946,126.9602147
서울본동초등학교,초등학교,서울특별시,동작구,본동,서울특별시 동작구 노량진로26길 16-40,37.5100908,126.9537363
서울노량진초등학교,초등학교,서울특별시,동작구,노량진동,서울특별시 동작구 장승배기로 160,37.5113579,126.9409291
서울강남초등학교,초등학교,서울특별시,동작구,상도1동,서울특별시 동작구 강남초등길 15,37.5060798,126.9535841
서울신상도초등학교,초등학교,서울특별시,동작구,상도동,서울특별시 동작구 장승배기로 14,37.5004006,126.9440809
서울성수초등학교,초등학교,서울특별시,성동구,성수동2가,서울특별시 성동구 아차산로17길 21,37.544058,127.0631573
서울경일초등학교,초등학교,서울특별시,성동구,성수동1가,서울특별시 성동구 뚝섬로 332,37.5403883,127.0468669
서울사근초등학교,초등학교,서울특별시,성동구,사근동,서울특별시 성동구 사근동11길 16,37.5628932,127.0478174
서울마장초등학교,초등학교,서울특별시,성동구,마장동,서울특별시 성동구 마장로35나길 31,37.5682297,127.042205
서울동명초등학교,초등학교,서울특별시,성동구,마장동,서울특별시 성동구 마장로29길 29,37.56812375,127.0351078
서울금옥초등학교,초등학교,서울특별시,성동구,금호동4가,서울특별시 성동구 독서당로 251,37.5460601,127.017485
서울옥수초등학교,초등학교,서울특별시,성동구,금호동4가,서울특별시 성동구 금호로1길 25,37.5459839,127.021758
서울금호초등학교,초등학교,서울특별시,성동구,금호동2가,서울특별시 성동구 무수막길 69,37.5522036,127.0203276
서울금북초등학교,초등학교,서울특별시,성동구,금호동1가,서울특별시 성동구 행당로1길 13,37.557465,127.0235067
서울경수초등학교,초등학교,서울특별시,성동구,성수동2가,서울특별시 성동구 뚝섬로13길 22,37.54043604,127.0580689
서울경동초등학교,초등학교,서울특별시,성동구,성수동1가,서울특별시 성동구 성수일로 34,37.5436794,127.0502832
서울동호초등학교,초등학교,서울특별시,성동구,옥수동,서울특별시 성동구 동호로5길 133,37.54646136,127.0100328
서울행당초등학교,초등학교,서울특별시,성동구,행당동,서울특별시 성동구 고산자로8길 6,37.5564432,127.034673
서울신성초등학교,초등학교,서울특별시,관악구,신림동,서울특별시 관악구 신림로 114,37.4717967,126.937152
서울난향초등학교,초등학교,서울특별시,관악구,신림동,서울특별시 관악구 난향길 9,37.4624143,126.9180741
서울난우초등학교,초등학교,서울특별시,관악구,신림동,서울특별시 관악구 난우길 40,37.4769379,126.9178675
서울관악초등학교,초등학교,서울특별시,관악구,봉천동,서울특별시 관악구 청룡4길 49,37.4808067,126.9428902
서울은천초등학교,초등학교,서울특별시,관악구,봉천동,서울특별시 관악구 은천로 69,37.4868591,126.9429033
서울구암초등학교,초등학교,서울특별시,관악구,봉천동,서울특별시 관악구 구암길 1,37.4894968,126.9468782
서울신봉초등학교,초등학교,서울특별시,관악구,봉천동,서울특별시 관악구 양녕로6나길 1,37.4854747,126.9492175
서울당곡초등학교,초등학교,서울특별시,관악구,봉천동,서울특별시 관악구 보라매로2길 23,37.4900001,126.9298977
서울인헌초등학교,초등학교,서울특별시,관악구,봉천동,서울특별시 관악구 낙성대로 23,37.47675328,126.9598656
서울사당초등학교,초등학교,서울특별시,관악구,남현동,서울특별시 관악구 남현4길 51,37.4736353,126.9740756
서울원당초등학교,초등학교,서울특별시,관악구,봉천동,서울특별시 관악구 봉천로 505,37.4811233,126.9560764
서울봉천초등학교,초등학교,서울특별시,관악구,봉천동,서울특별시 관악구 행운1라길 17,37.4829254,126.9578363
서울청룡초등학교,초등학교,서울특별시,관악구,봉천동,서울특별시 관악구 관악로5길 61,37.4756972,126.9512057
서울봉현초등학교,초등학교,서울특별시,관악구,봉천동,서울특별시 관악구 성현로 117,37.4910197,126.9556171
